{"type":"FeatureCollection","features":[{"type":"Feature","geometry":{"type":"Polygon","coordinates":[[[-122.2584966,47.6772935],[-122.2618825,47.67789979999999],[-122.26276800000001,47.678371299999995],[-122.2633415,47.678843299999976],[-122.26500199999998,47.68225299999999],[-122.26478890000001,47.6839016],[-122.2642217,47.685717700000005],[-122.2641863,47.685787],[-122.26343159999999,47.686004499999996],[-122.2616919,47.6862287],[-122.2607687,47.686339699999984],[-122.24879460000001,47.685180199999984],[-122.24754589999999,47.68391350000001],[-122.24860770000001,47.682337999999994],[-122.2500761,47.6805911],[-122.2508115,47.6797857],[-122.2529015,47.6779356],[-122.2584966,47.6772935]]]},"properties":{"ola":"Magnuson Park","distance":"0.5mi","distance_meters":804.67,"center_lat":47.6827,"center_lng":-122.2571,"area_sqkm":0.992}},{"type":"Feature","geometry":{"type":"Polygon","coordinates":[[[-122.26348520000002,47.6720575],[-122.2635535,47.672060300000005],[-122.2662817,47.67278219999999],[-122.2667446,47.672930900000004],[-122.27169150000002,47.6775237],[-122.27363990000002,47.67933620000001],[-122.27364230000002,47.6794683],[-122.26844970000002,47.69119779999999],[-122.2479499,47.6853851],[-122.2462019,47.68351280000001],[-122.245844,47.6815193],[-122.25064579999999,47.674718399999996],[-122.2516553,47.67382489999999],[-122.25188100000001,47.67368449999999],[-122.26348520000002,47.6720575]]]},"properties":{"ola":"Magnuson Park","distance":"1.0mi","distance_meters":1609.34,"center_lat":47.6827,"center_lng":-122.2571,"area_sqkm":2.974}},{"type":"Feature","geometry":{"type":"Polygon","coordinates":[[[-122.2800404,47.6583269],[-122.280123,47.6583282],[-122.2802272,47.65833039999999],[-122.2806751,47.65851029999999],[-122.2872939,47.66118449999999],[-122.2984422,47.6720921],[-122.3029036,47.677600700000006],[-122.30290099999999,47.677702800000006],[-122.29602809999999,47.697545999999996],[-122.2952247,47.6984498],[-122.2870761,47.704868899999994],[-122.28145940000002,47.70857290000001],[-122.28030490000002,47.708939900000004],[-122.27776640000002,47.70943869999999],[-122.2479499,47.6853851],[-122.2462019,47.68351280000001],[-122.245844,47.6815193],[-122.25064579999999,47.674718399999996],[-122.25252609999998,47.672717000000006],[-122.254021,47.67123029999998],[-122.25642039999998,47.669531199999994],[-122.27389610000002,47.65831229999999],[-122.27408999999999,47.658312599999995],[-122.27946670000001,47.658325],[-122.2800404,47.6583269]]]},"properties":{"ola":"Magnuson Park","distance":"2.5mi","distance_meters":4023.36,"center_lat":47.6827,"center_lng":-122.2571,"area_sqkm":15.164}},{"type":"Feature","geometry":{"type":"Polygon","coordinates":[[[-122.32249900000001,47.53562589999999],[-122.3242488,47.5363616],[-122.325482,47.53725289999999],[-122.32593110000002,47.539133],[-122.32593470000002,47.5394059],[-122.3258681,47.539786],[-122.32335400000001,47.541229799999996],[-122.32225620000001,47.5413135],[-122.31999949999998,47.540998500000015],[-122.318789,47.53945960000001],[-122.3190242,47.53787810000001],[-122.31982900000001,47.536699],[-122.32092949999999,47.53562],[-122.32249900000001,47.53562589999999]]]},"properties":{"ola":"Westcrest","distance":"0.5mi","distance_meters":804.67,"center_lat":47.52578,"center_lng":-122.34172,"area_sqkm":0.258}},{"type":"Feature","geometry":{"type":"Polygon","coordinates":[[[-122.32249900000001,47.53562589999999],[-122.3242488,47.5363616],[-122.3309948,47.54076370000001],[-122.33242729999999,47.54230379999999],[-122.33247029999998,47.5434564],[-122.33222210000001,47.5455245],[-122.33203789999999,47.545669],[-122.32962180000001,47.546295799999996],[-122.32167020000001,47.54798050000001],[-122.321145,47.5480651],[-122.3208793,47.5480697],[-122.3179318,47.54808309999999],[-122.31742540000002,47.54789889999999],[-122.3189473,47.53796349999999],[-122.31982900000001,47.536699],[-122.32092949999999,47.53562],[-122.32249900000001,47.53562589999999]]]},"properties":{"ola":"Westcrest","distance":"1.0mi","distance_meters":1609.34,"center_lat":47.52578,"center_lng":-122.34172,"area_sqkm":1.095}},{"type":"Feature","geometry":{"type":"Polygon","coordinates":[[[-122.298281,47.532876699999996],[-122.32249900000001,47.53562589999999],[-122.3242488,47.5363616],[-122.3309948,47.54076370000001],[-122.33437050000002,47.5431959],[-122.3352714,47.5439376],[-122.3378262,47.54814749999999],[-122.34398240000002,47.56018329999999],[-122.34426290000002,47.560924],[-122.34409130000002,47.563213600000005],[-122.3418731,47.56449359999999],[-122.3398018,47.5650715],[-122.3368943,47.5658149],[-122.3228379,47.568957899999994],[-122.32200860000002,47.5685649],[-122.3015846,47.558659600000006],[-122.2978677,47.556067299999995],[-122.2974423,47.55097940000001],[-122.29808650000001,47.5329503],[-122.298281,47.532876699999996]]]},"properties":{"ola":"Westcrest","distance":"2.5mi","distance_meters":4023.36,"center_lat":47.52578,"center_lng":-122.34172,"area_sqkm":9.877}},{"type":"Feature","geometry":{"type":"Polygon","coordinates":[[[-122.318186,47.588365],[-122.3199021,47.59157080000001],[-122.3199359,47.597788599999994],[-122.31920949999999,47.5983482],[-122.31738140000002,47.59930479999999],[-122.317351,47.599318700000005],[-122.31706900000002,47.599316],[-122.31668299999998,47.599151400000004],[-122.315357,47.5982636],[-122.3149039,47.5978836],[-122.31364400000001,47.5967644],[-122.31239289999999,47.591642199999995],[-122.31269419999998,47.590835199999994],[-122.31374720000001,47.5899283],[-122.3166303,47.58837549999999],[-122.31741020000001,47.58836480000001],[-122.318186,47.588365]]]},"properties":{"ola":"Dr. Jose Rizal","distance":"0.5mi","distance_meters":804.67,"center_lat":47.59386,"center_lng":-122.31809,"area_sqkm":0.52}},{"type":"Feature","geometry":{"type":"Polygon","coordinates":[[[-122.3153606,47.5818227],[-122.31593820000002,47.581913],[-122.31605550000002,47.5819952],[-122.3292387,47.59619159999999],[-122.3288457,47.59934899999999],[-122.3262905,47.60178690000001],[-122.3219533,47.60565359999999],[-122.3219239,47.6056593],[-122.31693859999999,47.6063198],[-122.31666200000001,47.60630999999999],[-122.31623290000002,47.60620540000001],[-122.3081035,47.60094769999999],[-122.30769,47.60061540000001],[-122.30623,47.5993432],[-122.30446749999999,47.597708700000005],[-122.30446770000002,47.5969237],[-122.30507760000002,47.5883534],[-122.3051756,47.5880408],[-122.3052987,47.58791819999999],[-122.3055055,47.5877382],[-122.3088338,47.58551959999999],[-122.3127465,47.583046],[-122.3153606,47.5818227]]]},"properties":{"ola":"Dr. Jose Rizal","distance":"1.0mi","distance_meters":1609.34,"center_lat":47.59386,"center_lng":-122.31809,"area_sqkm":3.308}},{"type":"Feature","geometry":{"type":"Polygon","coordinates":[[[-122.3142274,47.5612683],[-122.31608260000002,47.5617565],[-122.3194499,47.563501599999995],[-122.334212,47.5766078],[-122.3366932,47.5790292],[-122.3512522,47.61271709999999],[-122.3451209,47.61847199999999],[-122.33451870000002,47.623975],[-122.32693510000001,47.625850099999994],[-122.3214101,47.6268998],[-122.32121719999999,47.62690489999999],[-122.32035950000001,47.6269164],[-122.3145107,47.626959500000005],[-122.31450110000002,47.62695939999998],[-122.3023609,47.6227381],[-122.2986547,47.62136369999999],[-122.28654330000002,47.60923540000001],[-122.2834542,47.60600409999999],[-122.2832334,47.60513209999999],[-122.28198360000002,47.590181799999996],[-122.2835355,47.5789666],[-122.28414559999999,47.5765017],[-122.2842105,47.5763129],[-122.2847815,47.5751998],[-122.29000290000002,47.56949649999999],[-122.30517930000002,47.5620955],[-122.3141371,47.5612686],[-122.3142274,47.5612683]]]},"properties":{"ola":"Dr. Jose Rizal","distance":"2.5mi","distance_meters":4023.36,"center_lat":47.59386,"center_lng":-122.31809,"area_sqkm":27.15}},{"type":"Feature","geometry":{"type":"Polygon","coordinates":[[[-122.27571940000001,47.55704719999999],[-122.2807471,47.559453699999985],[-122.28344919999999,47.56100529999999],[-122.28370190000001,47.561171800000004],[-122.2843969,47.5617849],[-122.28626290000001,47.56399909999999],[-122.286263,47.56410889999999],[-122.28616830000001,47.564214099999994],[-122.2775809,47.5706648],[-122.276904,47.5706598],[-122.2763436,47.570471899999994],[-122.2707991,47.567722],[-122.26800820000001,47.5657979],[-122.2677041,47.565514199999996],[-122.26764219999998,47.5654177],[-122.2674407,47.561807800000004],[-122.27571940000001,47.55704719999999]]]},"properties":{"ola":"Genesee","distance":"0.5mi","distance_meters":804.67,"center_lat":47.56395,"center_lng":-122.27608,"area_sqkm":1.302}},{"type":"Feature","geometry":{"type":"Polygon","coordinates":[[[-122.2753979,47.55038009999999],[-122.2807806,47.552641],[-122.2889263,47.5566583],[-122.2916908,47.55854970000001],[-122.2942293,47.5607634],[-122.2949796,47.562873999999994],[-122.29246710000001,47.5671892],[-122.290843,47.569726300000006],[-122.28348170000001,47.57479839999999],[-122.2828689,47.5750179],[-122.2810609,47.57408959999999],[-122.26941799999999,47.56742059999999],[-122.268518,47.566576100000006],[-122.2677041,47.565514199999996],[-122.261514,47.55733730000001],[-122.2620922,47.5563292],[-122.2683476,47.5533646],[-122.2753979,47.55038009999999]]]},"properties":{"ola":"Genesee","distance":"1.0mi","distance_meters":1609.34,"center_lat":47.56395,"center_lng":-122.27608,"area_sqkm":4.048}},{"type":"Feature","geometry":{"type":"Polygon","coordinates":[[[-122.2699919,47.5301548],[-122.27544160000001,47.53092149999999],[-122.2806007,47.5321648],[-122.295444,47.539628099999995],[-122.29601399999999,47.53995160000001],[-122.29982070000001,47.54232],[-122.31835460000002,47.555369],[-122.31913050000001,47.55629139999999],[-122.3201977,47.55863889999999],[-122.3204466,47.5599529],[-122.32031230000001,47.5634621],[-122.32005,47.564584],[-122.3161346,47.5760709],[-122.31456030000001,47.57872919999999],[-122.3133177,47.580300900000005],[-122.30599990000002,47.588363599999994],[-122.3056794,47.58851549999999],[-122.28829090000002,47.59587570000001],[-122.2875618,47.5961712],[-122.2870069,47.5957435],[-122.2479341,47.55690600000001],[-122.2466166,47.55311129999999],[-122.2646484,47.53326989999999],[-122.266546,47.531748500000006],[-122.2698606,47.53015469999999],[-122.2699919,47.5301548]]]},"properties":{"ola":"Genesee","distance":"2.5mi","distance_meters":4023.36,"center_lat":47.56395,"center_lng":-122.27608,"area_sqkm":24.538}},{"type":"Feature","geometry":{"type":"Polygon","coordinates":[[[-122.2974953,47.58272370000001],[-122.3004794,47.58284950000001],[-122.30163799999998,47.5833613],[-122.3024452,47.5837221],[-122.30425479999998,47.5848229],[-122.3068848,47.586918700000005],[-122.3085198,47.588374699999996],[-122.30853579999999,47.5884995],[-122.3042292,47.5923094],[-122.3033399,47.5927743],[-122.30254760000001,47.593146899999994],[-122.3025151,47.5931615],[-122.29772290000001,47.5933948],[-122.2967165,47.59338399999999],[-122.29651250000002,47.59338050000001],[-122.2943655,47.592220100000006],[-122.29107110000001,47.589416699999994],[-122.2915149,47.58730759999999],[-122.29397290000001,47.5851057],[-122.29576889999998,47.583635300000005],[-122.2974953,47.58272370000001]]]},"properties":{"ola":"Blue Dog Pond","distance":"0.5mi","distance_meters":804.67,"center_lat":47.58889,"center_lng":-122.29863,"area_sqkm":1.059}},{"type":"Feature","geometry":{"type":"Polygon","coordinates":[[[-122.2965902,47.575728600000005],[-122.3002376,47.5763198],[-122.3042642,47.5776036],[-122.30528359999998,47.5782651],[-122.31329000000001,47.5836373],[-122.31663919999998,47.58632409999999],[-122.3166462,47.59006440000001],[-122.3127999,47.59581889999999],[-122.308875,47.5975675],[-122.3023464,47.6004065],[-122.2969524,47.6015793],[-122.29592190000001,47.600935799999995],[-122.2918402,47.5982486],[-122.28837110000002,47.5958085],[-122.2870266,47.594570399999995],[-122.2858625,47.590455199999994],[-122.28559290000001,47.58929619999999],[-122.2854947,47.5887708],[-122.2862149,47.58237930000001],[-122.2918392,47.578272999999996],[-122.2954119,47.57588899999999],[-122.2959703,47.575732],[-122.2963174,47.57572760000001],[-122.2965902,47.575728600000005]]]},"properties":{"ola":"Blue Dog Pond","distance":"1.0mi","distance_meters":1609.34,"center_lat":47.58889,"center_lng":-122.29863,"area_sqkm":4.73}},{"type":"Feature","geometry":{"type":"Polygon","coordinates":[[[-122.2896969,47.555068299999995],[-122.29015330000001,47.5551373],[-122.30390580000001,47.55742850000001],[-122.31423560000002,47.5617603],[-122.3186942,47.564568],[-122.3348789,47.582023299999996],[-122.339356,47.59898779999999],[-122.33868259999998,47.60156239999999],[-122.33818509999999,47.602976699999985],[-122.3380629,47.6031693],[-122.3351918,47.60704500000001],[-122.33378670000002,47.60859090000001],[-122.32927250000002,47.61352930000001],[-122.3280285,47.61425599999999],[-122.30261990000001,47.62145410000001],[-122.29644519999998,47.6229524],[-122.2961548,47.6229678],[-122.281087,47.61510929999999],[-122.26941799999999,47.56742059999999],[-122.2693906,47.5673033],[-122.271923,47.5652344],[-122.2836655,47.5562812],[-122.2894991,47.5550699],[-122.2896969,47.555068299999995]]]},"properties":{"ola":"Blue Dog Pond","distance":"2.5mi","distance_meters":4023.36,"center_lat":47.58889,"center_lng":-122.29863,"area_sqkm":28.144}},{"type":"Feature","geometry":{"type":"Polygon","coordinates":[[[-122.3272531,47.71556629999999],[-122.3311295,47.71710910000001],[-122.3355546,47.7219524],[-122.33466340000001,47.7232049],[-122.3295644,47.7264343],[-122.3289414,47.726819199999994],[-122.3287842,47.726882799999984],[-122.3230643,47.7248571],[-122.3208882,47.72402129999998],[-122.3192314,47.7230685],[-122.3203436,47.7212429],[-122.32085570000001,47.720545699999995],[-122.32671720000002,47.71562240000001],[-122.3272531,47.71556629999999]]]},"properties":{"ola":"Northacres","distance":"0.5mi","distance_meters":804.67,"center_lat":47.72178,"center_lng":-122.32612,"area_sqkm":0.902}},{"type":"Feature","geometry":{"type":"Polygon","coordinates":[[[-122.33137750000002,47.7111489],[-122.3345148,47.7122952],[-122.3368912,47.713754400000006],[-122.3382587,47.714631],[-122.34139389999999,47.7167243],[-122.3457162,47.72248],[-122.3457165,47.7225186],[-122.3453338,47.723239599999985],[-122.345222,47.7233659],[-122.33821780000001,47.730543299999994],[-122.3343879,47.7323183],[-122.3287897,47.7339942],[-122.3282367,47.7337691],[-122.3164068,47.728642],[-122.3125589,47.7267158],[-122.31242979999999,47.726643599999996],[-122.3100046,47.71947560000001],[-122.3099845,47.719395],[-122.30998790000001,47.7193206],[-122.3127444,47.7171248],[-122.31393950000002,47.716358],[-122.31787049999998,47.71393849999999],[-122.33137750000002,47.7111489]]]},"properties":{"ola":"Northacres","distance":"1.0mi","distance_meters":1609.34,"center_lat":47.72178,"center_lng":-122.32612,"area_sqkm":4.501}},{"type":"Feature","geometry":{"type":"Polygon","coordinates":[[[-122.3276052,47.68957029999999],[-122.33771760000002,47.692262799999995],[-122.33821620000002,47.6924053],[-122.34526320000002,47.696293],[-122.34783809999999,47.697752799999996],[-122.35480890000001,47.7021753],[-122.35733149999999,47.704272499999995],[-122.37165250000001,47.7173132],[-122.3733151,47.722413],[-122.3726685,47.7236292],[-122.3680582,47.7294381],[-122.3615649,47.7341091],[-122.36140160000001,47.734114399999996],[-122.3599288,47.73412960000001],[-122.3567895,47.73413140000001],[-122.34752150000001,47.73413279999999],[-122.33304450000001,47.7341312],[-122.3109427,47.7339353],[-122.308676,47.733913199999996],[-122.29111690000002,47.733697100000015],[-122.2883688,47.73193619999999],[-122.2876044,47.7312719],[-122.2862678,47.729339200000005],[-122.2812172,47.7182268],[-122.2816528,47.7173185],[-122.28530390000002,47.7118815],[-122.2906406,47.70828530000001],[-122.30606740000002,47.69802129999999],[-122.306796,47.6975892],[-122.31752000000002,47.6927406],[-122.3276052,47.68957029999999]]]},"properties":{"ola":"Northacres","distance":"2.5mi","distance_meters":4023.36,"center_lat":47.72178,"center_lng":-122.32612,"area_sqkm":24.521}},{"type":"Feature","geometry":{"type":"Polygon","coordinates":[[[-122.4033215,47.685850599999995],[-122.40398070000002,47.68620150000001],[-122.40427219999998,47.686609099999984],[-122.4044624,47.6871364],[-122.4044702,47.68718119999999],[-122.40535439999998,47.692713999999995],[-122.4053916,47.6940145],[-122.4014432,47.69701439999999],[-122.3958494,47.6931284],[-122.392897,47.6909341],[-122.3925025,47.690588000000005],[-122.3924996,47.690509299999995],[-122.3942853,47.687659199999985],[-122.3963851,47.686820899999994],[-122.3970824,47.6866685],[-122.4033215,47.685850599999995]]]},"properties":{"ola":"Golden Gardens","distance":"0.5mi","distance_meters":804.67,"center_lat":47.6909,"center_lng":-122.40064,"area_sqkm":0.781}},{"type":"Feature","geometry":{"type":"Polygon","coordinates":[[[-122.39848949999998,47.67905490000001],[-122.40574,47.67967459999999],[-122.40609330000001,47.6798187],[-122.4062027,47.68000740000001],[-122.4053916,47.6940145],[-122.4014432,47.69701439999999],[-122.39699059999998,47.6992219],[-122.394102,47.7002541],[-122.38223929999998,47.6912006],[-122.3816398,47.69065719999999],[-122.38164000000002,47.69052899999999],[-122.3842531,47.6867654],[-122.387352,47.6846178],[-122.38968460000001,47.68305180000001],[-122.39289910000001,47.680897900000005],[-122.39838890000001,47.6790548],[-122.39848949999998,47.67905490000001]]]},"properties":{"ola":"Golden Gardens","distance":"1.0mi","distance_meters":1609.34,"center_lat":47.6909,"center_lng":-122.40064,"area_sqkm":2.896}},{"type":"Feature","geometry":{"type":"Polygon","coordinates":[[[-122.38207449999999,47.66435929999999],[-122.4002412,47.66711509999999],[-122.40100149999999,47.66735169999999],[-122.40388180000001,47.668706400000005],[-122.4039837,47.668785899999996],[-122.40430690000001,47.6690875],[-122.40819460000002,47.67381189999999],[-122.4109789,47.677639500000005],[-122.4053916,47.6940145],[-122.4004157,47.697933199999994],[-122.39818609999999,47.699222999999996],[-122.37887689999998,47.70951250000001],[-122.3773414,47.70918919999999],[-122.3712264,47.7074846],[-122.3592703,47.703347099999995],[-122.35881890000002,47.70277089999999],[-122.34980500000002,47.6906551],[-122.34980710000002,47.69051410000001],[-122.35267359999999,47.6865783],[-122.3805217,47.665474100000004],[-122.3820317,47.66436680000001],[-122.38207449999999,47.66435929999999]]]},"properties":{"ola":"Golden Gardens","distance":"2.5mi","distance_meters":4023.36,"center_lat":47.6909,"center_lng":-122.40064,"area_sqkm":14.763}},{"type":"Feature","geometry":{"type":"Polygon","coordinates":[[[-122.3447314,47.664940599999994],[-122.34815349999998,47.66600119999998],[-122.3485166,47.66624209999999],[-122.34873130000001,47.6664834],[-122.34879070000001,47.6665502],[-122.3513447,47.671533499999995],[-122.34859,47.6752325],[-122.34843420000001,47.67541709999999],[-122.3471795,47.6760115],[-122.337605,47.672287],[-122.3374403,47.67216329999999],[-122.3367229,47.671535700000014],[-122.33694000000001,47.6708381],[-122.3379055,47.6686327],[-122.33861050000002,47.6672302],[-122.3403391,47.66578629999999],[-122.3419905,47.66493989999999],[-122.3444308,47.66494],[-122.3447314,47.664940599999994]]]},"properties":{"ola":"Lower Woodland","distance":"0.5mi","distance_meters":804.67,"center_lat":47.67042,"center_lng":-122.34431,"area_sqkm":0.902}},{"type":"Feature","geometry":{"type":"Polygon","coordinates":[[[-122.3435392,47.6584454],[-122.3436348,47.6584462],[-122.3471206,47.658616499999994],[-122.35091180000002,47.66028949999999],[-122.35285540000001,47.661345299999994],[-122.35533960000001,47.6629569],[-122.35724629999999,47.66424080000001],[-122.36069530000002,47.670810499999995],[-122.3609149,47.67228089999999],[-122.3609137,47.6724344],[-122.3585553,47.6759207],[-122.35838639999999,47.6760643],[-122.355883,47.6778409],[-122.35450220000001,47.67880950000001],[-122.349999,47.6814314],[-122.34678220000002,47.68256900000001],[-122.34649690000002,47.682629199999994],[-122.3443081,47.6829748],[-122.3440681,47.68294759999999],[-122.33016030000002,47.67880829999999],[-122.32795069999999,47.67601009999999],[-122.32795220000001,47.6759345],[-122.32816660000002,47.667980199999995],[-122.328358,47.667278599999996],[-122.3283759,47.66721419999998],[-122.3304051,47.664917599999995],[-122.33751330000001,47.660280199999995],[-122.3393391,47.659569700000006],[-122.34229390000002,47.65844630000001],[-122.3435392,47.6584454]]]},"properties":{"ola":"Lower Woodland","distance":"1.0mi","distance_meters":1609.34,"center_lat":47.67042,"center_lng":-122.34431,"area_sqkm":4.932}},{"type":"Feature","geometry":{"type":"Polygon","coordinates":[[[-122.3442358,47.63748189999999],[-122.3508241,47.63904159999999],[-122.3555821,47.6414353],[-122.3764063,47.6558296],[-122.3915812,47.6686624],[-122.3927834,47.6708519],[-122.3930927,47.6723309],[-122.39308920000002,47.67246900000001],[-122.39021350000002,47.676000599999995],[-122.3833482,47.68139479999999],[-122.3694646,47.6907288],[-122.3587188,47.69784959999999],[-122.35473170000002,47.70037409999999],[-122.3527407,47.7014999],[-122.35005709999999,47.70293],[-122.34736970000002,47.70398099999999],[-122.3447572,47.703843400000004],[-122.336654,47.70145920000001],[-122.3230694,47.69715419999999],[-122.30962420000002,47.690256],[-122.30897680000001,47.689873299999995],[-122.30889349999998,47.6898196],[-122.29619030000002,47.675857099999995],[-122.30333579999999,47.6618594],[-122.3040815,47.6604476],[-122.3051378,47.658672200000005],[-122.3055221,47.658328],[-122.31481050000001,47.6518413],[-122.31498039999998,47.651746],[-122.343854,47.637491999999995],[-122.3442358,47.63748189999999]]]},"properties":{"ola":"Lower Woodland","distance":"2.5mi","distance_meters":4023.36,"center_lat":47.67042,"center_lng":-122.34431,"area_sqkm":33.273}},{"type":"Feature","geometry":{"type":"Polygon","coordinates":[[[-122.3295029,47.629518000000004],[-122.32999470000001,47.62960499999999],[-122.32997559999998,47.63052940000001],[-122.32967120000002,47.6384849],[-122.32944410000002,47.638961900000005],[-122.3284818,47.6397884],[-122.32462040000001,47.6419869],[-122.3220952,47.64084689999999],[-122.3199465,47.6394865],[-122.31719579999998,47.63770519999999],[-122.3171953,47.637302600000005],[-122.31729749999998,47.636117500000005],[-122.31837689999999,47.6321192],[-122.3202003,47.631425],[-122.3239233,47.630137399999995],[-122.3295029,47.629518000000004]]]},"properties":{"ola":"I-5 Colonnade","distance":"0.5mi","distance_meters":804.67,"center_lat":47.63483,"center_lng":-122.32376,"area_sqkm":0.991}},{"type":"Feature","geometry":{"type":"Polygon","coordinates":[[[-122.3292989,47.622040299999995],[-122.3349527,47.6239746],[-122.33599370000002,47.62444730000001],[-122.33841850000002,47.62599449999999],[-122.3275962,47.6462631],[-122.32592280000001,47.64736959999999],[-122.32466180000002,47.6479246],[-122.32223700000002,47.6486172],[-122.31954330000002,47.64696699999999],[-122.3176882,47.64569449999999],[-122.3164443,47.6444249],[-122.31153969999998,47.63810240000001],[-122.3114941,47.6380319],[-122.3084774,47.6322484],[-122.30925340000002,47.6305658],[-122.3105933,47.62875669999998],[-122.31267880000001,47.627583400000006],[-122.3167453,47.6253486],[-122.31979360000001,47.624195799999995],[-122.3292989,47.622040299999995]]]},"properties":{"ola":"I-5 Colonnade","distance":"1.0mi","distance_meters":1609.34,"center_lat":47.63483,"center_lng":-122.32376,"area_sqkm":4.051}},{"type":"Feature","geometry":{"type":"Polygon","coordinates":[[[-122.32060580000001,47.60253749999999],[-122.3310392,47.6038388],[-122.3327785,47.6040807],[-122.33457180000002,47.604332],[-122.3380771,47.6048409],[-122.33993910000001,47.60520959999999],[-122.341316,47.60585840000001],[-122.3551129,47.61361519999999],[-122.35570130000002,47.6140881],[-122.36707830000002,47.6247185],[-122.36765380000001,47.626274699999996],[-122.36192570000001,47.63240230000001],[-122.3361337,47.657885699999994],[-122.3326762,47.660230799999994],[-122.3324806,47.66036150000001],[-122.33076199999998,47.6615066],[-122.323006,47.666356900000004],[-122.3194262,47.668517099999995],[-122.31831920000002,47.6686631],[-122.31683960000001,47.6686505],[-122.31617610000002,47.66864449999999],[-122.31573549999999,47.66849259999999],[-122.306416,47.66300249999999],[-122.3047051,47.661948800000005],[-122.3010008,47.6584332],[-122.28987400000001,47.6426449],[-122.28686379999999,47.62995070000001],[-122.28655570000001,47.625719999999994],[-122.2863899,47.6231132],[-122.28662730000002,47.622508200000006],[-122.2955305,47.6163799],[-122.2986985,47.61421330000002],[-122.30064099999998,47.6129417],[-122.3026176,47.6116582],[-122.3028601,47.611516800000004],[-122.3116679,47.60664409999999],[-122.31665470000002,47.60413639999999],[-122.319519,47.6027618],[-122.32060580000001,47.60253749999999]]]},"properties":{"ola":"I-5 Colonnade","distance":"2.5mi","distance_meters":4023.36,"center_lat":47.63483,"center_lng":-122.32376,"area_sqkm":28.487}},{"type":"Feature","geometry":{"type":"Polygon","coordinates":[[[-122.391496,47.64541679999999],[-122.3916942,47.645431899999984],[-122.3942724,47.64579369999999],[-122.39569890000001,47.646764299999994],[-122.4016373,47.6521777],[-122.40163630000002,47.6523148],[-122.3962721,47.656019799999996],[-122.3943231,47.65715780000001],[-122.3902222,47.65654059999999],[-122.3875641,47.655878400000006],[-122.3874717,47.65584769999999],[-122.38483809999998,47.6540374],[-122.38330010000001,47.65039159999999],[-122.3832948,47.650274799999984],[-122.38590150000002,47.64834200000001],[-122.3901812,47.64570319999999],[-122.391496,47.64541679999999]]]},"properties":{"ola":"Magnolia Manor","distance":"0.5mi","distance_meters":804.67,"center_lat":47.65155,"center_lng":-122.39198,"area_sqkm":1.15}},{"type":"Feature","geometry":{"type":"Polygon","coordinates":[[[-122.3929303,47.6377608],[-122.39578440000001,47.639494899999995],[-122.3963603,47.639847],[-122.3982261,47.64108310000001],[-122.40496270000001,47.64556129999999],[-122.40967380000001,47.65038130000001],[-122.4096766,47.65049679999999],[-122.40908239999999,47.65408909999999],[-122.40631590000001,47.656805199999994],[-122.3997562,47.66171409999999],[-122.3983129,47.6620536],[-122.39716750000001,47.6621953],[-122.39108020000002,47.66282399999999],[-122.38572009999999,47.661375099999994],[-122.3841112,47.66039270000001],[-122.3826353,47.659364999999994],[-122.3782133,47.65468769999999],[-122.375571,47.648587299999996],[-122.3755492,47.64836259999999],[-122.3756938,47.648140899999994],[-122.3838805,47.6425462],[-122.38714850000001,47.6403228],[-122.390262,47.6383424],[-122.3929303,47.6377608]]]},"properties":{"ola":"Magnolia Manor","distance":"1.0mi","distance_meters":1609.34,"center_lat":47.65155,"center_lng":-122.39198,"area_sqkm":4.665}},{"type":"Feature","geometry":{"type":"Polygon","coordinates":[[[-122.37033540000002,47.6275507],[-122.3708428,47.6275802],[-122.3830491,47.6283585],[-122.39508920000002,47.6305614],[-122.39899379999999,47.632118999999996],[-122.412518,47.638705699999996],[-122.4148504,47.64047279999999],[-122.4349381,47.6618455],[-122.43495179999998,47.6620283],[-122.42179509999998,47.667721399999984],[-122.4129303,47.671134499999994],[-122.40955790000001,47.67142739999999],[-122.37606,47.6709783],[-122.373444,47.6693866],[-122.3724835,47.66877889999999],[-122.36873710000002,47.66635169999999],[-122.36634290000002,47.66471540000001],[-122.3639102,47.662853899999995],[-122.34958030000001,47.649467099999995],[-122.3488774,47.6486109],[-122.34947950000002,47.64375290000002],[-122.3534655,47.639950500000005],[-122.3595626,47.63467889999999],[-122.3676366,47.62829359999999],[-122.3697739,47.6276549],[-122.37033540000002,47.6275507]]]},"properties":{"ola":"Magnolia Manor","distance":"2.5mi","distance_meters":4023.36,"center_lat":47.65155,"center_lng":-122.39198,"area_sqkm":21.41}},{"type":"Feature","geometry":{"type":"Polygon","coordinates":[[[-122.344877,47.60923280000001],[-122.3483563,47.61021420000001],[-122.35242030000002,47.6125264],[-122.352986,47.6185029],[-122.3527311,47.61868150000001],[-122.348946,47.619868899999986],[-122.34501000000002,47.62024159999999],[-122.342589,47.62020570000001],[-122.3424015,47.6202029],[-122.3386518,47.6197937],[-122.33705349999998,47.61844399999998],[-122.33671940000002,47.6116833],[-122.3376308,47.6097452],[-122.3378641,47.609644],[-122.33829279999999,47.609465300000004],[-122.33878700000001,47.6094287],[-122.344877,47.60923280000001]]]},"properties":{"ola":"Regrade","distance":"0.5mi","distance_meters":804.67,"center_lat":47.61435,"center_lng":-122.34478,"area_sqkm":1.282}},{"type":"Feature","geometry":{"type":"Polygon","coordinates":[[[-122.3372933,47.60313450000001],[-122.3386845,47.60370449999999],[-122.3419859,47.60552],[-122.3551129,47.61361519999999],[-122.35570130000002,47.6140881],[-122.36009400000002,47.61807040000001],[-122.3619724,47.6211068],[-122.3617618,47.6215462],[-122.35356560000001,47.62543519999999],[-122.3476754,47.6270995],[-122.342402,47.627444499999996],[-122.3399542,47.6272022],[-122.3372069,47.62645019999999],[-122.329313,47.62087869999999],[-122.3268541,47.6185814],[-122.32687720000001,47.61839539999998],[-122.32781740000001,47.6151078],[-122.32828259999998,47.613626599999996],[-122.3296325,47.60934379999999],[-122.33006590000001,47.608182],[-122.33097819999999,47.60581779999999],[-122.3320339,47.6035847],[-122.3321338,47.6033819],[-122.3372933,47.60313450000001]]]},"properties":{"ola":"Regrade","distance":"1.0mi","distance_meters":1609.34,"center_lat":47.61435,"center_lng":-122.34478,"area_sqkm":4.507}},{"type":"Feature","geometry":{"type":"Polygon","coordinates":[[[-122.33404620000002,47.582005699999996],[-122.3349732,47.5827611],[-122.3832604,47.6319559],[-122.3836741,47.6336174],[-122.37682940000002,47.63906870000001],[-122.3764009,47.63924049999999],[-122.351203,47.6469637],[-122.3503836,47.646963799999995],[-122.3499234,47.64695710000001],[-122.32526690000002,47.6432745],[-122.32452889999999,47.6431157],[-122.3211757,47.64161359999999],[-122.32060189999999,47.6413531],[-122.31632080000001,47.6381899],[-122.29839530000001,47.62212049999999],[-122.29718400000002,47.62026550000001],[-122.29685,47.61529459999999],[-122.2968494,47.615219],[-122.2976235,47.6128496],[-122.3019005,47.60175340000001],[-122.30339510000002,47.59937459999999],[-122.3050323,47.59740810000001],[-122.30629709999998,47.5959659],[-122.3077454,47.5944567],[-122.32156140000001,47.5846183],[-122.32872299999998,47.5831062],[-122.33404620000002,47.582005699999996]]]},"properties":{"ola":"Regrade","distance":"2.5mi","distance_meters":4023.36,"center_lat":47.61435,"center_lng":-122.34478,"area_sqkm":28.69}},{"type":"Feature","geometry":{"type":"Polygon","coordinates":[[[-122.33006590000001,47.608182],[-122.33178730000002,47.6083558],[-122.3321892,47.6084598],[-122.33691540000001,47.61026579999999],[-122.33719529999999,47.61157819999999],[-122.3356911,47.6183186],[-122.33555699999998,47.6184322],[-122.33416840000001,47.6192399],[-122.3278449,47.620890900000006],[-122.3239332,47.6198143],[-122.32391170000001,47.61980290000001],[-122.3193527,47.6151797],[-122.31932100000002,47.61417939999999],[-122.3193206,47.6140063],[-122.319857,47.612865799999994],[-122.32092,47.61155269999999],[-122.32133449999999,47.611042600000005],[-122.3216542,47.61069640000001],[-122.3232358,47.6090685],[-122.32404130000002,47.6086643],[-122.3245302,47.60851079999999],[-122.32458,47.6085059],[-122.33006590000001,47.608182]]]},"properties":{"ola":"Plymouth Pillars","distance":"0.5mi","distance_meters":804.67,"center_lat":47.61434,"center_lng":-122.32895,"area_sqkm":1.435}},{"type":"Feature","geometry":{"type":"Polygon","coordinates":[[[-122.32772030000001,47.60225799999999],[-122.3292752,47.6022781],[-122.32987269999998,47.602335599999996],[-122.3319343,47.60264490000001],[-122.3341574,47.60302080000001],[-122.3365525,47.6035059],[-122.33916769999999,47.6043597],[-122.34051080000002,47.60481819999999],[-122.3408405,47.605080799999996],[-122.3435254,47.6072945],[-122.34465810000002,47.6091042],[-122.3454546,47.61059900000001],[-122.3462163,47.618656],[-122.34516760000001,47.619843299999985],[-122.3439356,47.620820599999995],[-122.34280039999999,47.62149469999998],[-122.33469760000001,47.6260395],[-122.327106,47.62765649999999],[-122.32551179999999,47.62735660000001],[-122.3236491,47.62691679999999],[-122.32230630000001,47.626139],[-122.31772829999998,47.623177],[-122.31352760000001,47.620142599999994],[-122.31328520000001,47.6199046],[-122.31004780000002,47.6165009],[-122.30875870000001,47.614170300000005],[-122.3087603,47.6140417],[-122.3095289,47.6127991],[-122.31558900000002,47.6055197],[-122.31843570000001,47.6024266],[-122.32772030000001,47.60225799999999]]]},"properties":{"ola":"Plymouth Pillars","distance":"1.0mi","distance_meters":1609.34,"center_lat":47.61434,"center_lng":-122.32895,"area_sqkm":5.822}},{"type":"Feature","geometry":{"type":"Polygon","coordinates":[[[-122.3288858,47.581039],[-122.3290639,47.58104039999999],[-122.3344313,47.5818297],[-122.3346798,47.5820231],[-122.37138519999999,47.62835350000001],[-122.3713089,47.62862390000001],[-122.3473515,47.642954799999984],[-122.344943,47.64438679999999],[-122.3230325,47.6476126],[-122.3229452,47.6475803],[-122.31825,47.6456973],[-122.2866065,47.630706800000006],[-122.2861803,47.6302744],[-122.28024620000001,47.616442899999996],[-122.2813557,47.61226849999999],[-122.2827557,47.60947049999999],[-122.2844395,47.6068119],[-122.285598,47.605142400000005],[-122.2891412,47.60008629999999],[-122.2959991,47.5919531],[-122.2966442,47.5912183],[-122.30175169999998,47.5854919],[-122.30272850000001,47.58453980000001],[-122.3030914,47.5844432],[-122.3042636,47.5841768],[-122.3043763,47.58415170000001],[-122.3148332,47.581888600000006],[-122.325985,47.581167900000004],[-122.3288858,47.581039]]]},"properties":{"ola":"Plymouth Pillars","distance":"2.5mi","distance_meters":4023.36,"center_lat":47.61434,"center_lng":-122.32895,"area_sqkm":33.268}},{"type":"Feature","geometry":{"type":"Polygon","coordinates":[[[-122.3623408,47.6216091],[-122.36365410000002,47.62207849999999],[-122.3725941,47.6275221],[-122.372754,47.6276442],[-122.3751977,47.631314999999994],[-122.3749575,47.631701],[-122.374661,47.6318618],[-122.37375230000002,47.6319262],[-122.3618275,47.6259154],[-122.359814,47.62450219999999],[-122.3618528,47.62164229999999],[-122.3623408,47.6216091]]]},"properties":{"ola":"Kinnear","distance":"0.5mi","distance_meters":804.67,"center_lat":47.62696,"center_lng":-122.36766,"area_sqkm":0.477}},{"type":"Feature","geometry":{"type":"Polygon","coordinates":[[[-122.35701679999998,47.61689979999999],[-122.3778583,47.629813799999994],[-122.3834807,47.63331879999999],[-122.3836741,47.6336174],[-122.37682860000001,47.6383907],[-122.3764005,47.6385957],[-122.37598550000001,47.63870380000001],[-122.36038759999998,47.632252199999996],[-122.3553004,47.6288533],[-122.3529047,47.6272497],[-122.3490762,47.624465699999995],[-122.3536647,47.617723100000006],[-122.3538396,47.6175762],[-122.3546945,47.616929600000006],[-122.35701679999998,47.61689979999999]]]},"properties":{"ola":"Kinnear","distance":"1.0mi","distance_meters":1609.34,"center_lat":47.62696,"center_lng":-122.36766,"area_sqkm":2.75}},{"type":"Feature","geometry":{"type":"Polygon","coordinates":[[[-122.3354602,47.60012429999998],[-122.33608010000002,47.600133199999995],[-122.33920339999999,47.6011648],[-122.4072467,47.636247199999985],[-122.4086505,47.6372226],[-122.406589,47.640387000000004],[-122.4064676,47.640547500000004],[-122.3866353,47.6558642],[-122.3762314,47.659551400000005],[-122.3709069,47.657362299999996],[-122.35327510000002,47.648628200000005],[-122.3499234,47.64695710000001],[-122.32525530000001,47.63441739999999],[-122.32457410000002,47.6339202],[-122.3244245,47.6333126],[-122.3223001,47.618817500000006],[-122.322296,47.618668299999996],[-122.3321338,47.6033819],[-122.33306730000001,47.6020822],[-122.33344460000002,47.6016541],[-122.3343284,47.60096120000001],[-122.3354602,47.60012429999998]]]},"properties":{"ola":"Kinnear","distance":"2.5mi","distance_meters":4023.36,"center_lat":47.62696,"center_lng":-122.36766,"area_sqkm":22.496}},{"type":"Feature","geometry":{"type":"Polygon","coordinates":[[[-122.3376,47.61333049999999],[-122.3458166,47.6140176],[-122.34764060000002,47.614173400000006],[-122.3478023,47.614281],[-122.34903399999999,47.61588880000001],[-122.3509956,47.6185062],[-122.3502534,47.62020189999999],[-122.34784710000001,47.622153700000005],[-122.34634279999999,47.623147700000004],[-122.342503,47.62548530000001],[-122.339593,47.6255798],[-122.33954099999998,47.62557590000001],[-122.3377886,47.6245567],[-122.3364986,47.6237368],[-122.3326348,47.6210362],[-122.3323407,47.6208207],[-122.3310675,47.61859959999999],[-122.3310678,47.6185177],[-122.3311968,47.61829109999999],[-122.33166650000001,47.617639399999995],[-122.33266470000001,47.6163309],[-122.33389000000001,47.61529249999998],[-122.3339686,47.61523019999999],[-122.3343087,47.6149612],[-122.3347347,47.6146634],[-122.3348166,47.61461210000001],[-122.3368498,47.6136106],[-122.3376,47.61333049999999]]]},"properties":{"ola":"Denny Park","distance":"0.5mi","distance_meters":804.67,"center_lat":47.61937,"center_lng":-122.34108,"area_sqkm":1.409}},{"type":"Feature","geometry":{"type":"Polygon","coordinates":[[[-122.3342448,47.60737519999999],[-122.3393277,47.6076624],[-122.34279799999999,47.60793149999999],[-122.3483563,47.61021420000001],[-122.3551129,47.61361519999999],[-122.35570130000002,47.6140881],[-122.3603832,47.6200102],[-122.36053660000002,47.62046600000001],[-122.35999930000001,47.62102990000001],[-122.3586927,47.622197],[-122.35815260000001,47.622618399999986],[-122.3573838,47.623213099999994],[-122.35399100000001,47.62553],[-122.3515852,47.6271127],[-122.34875140000001,47.62885910000001],[-122.3429259,47.63237680000001],[-122.34097599999998,47.632663300000004],[-122.34043020000001,47.6325451],[-122.3310647,47.6291315],[-122.33093889999999,47.6290354],[-122.32212659999999,47.62010129999999],[-122.3210334,47.618807999999994],[-122.32099459999999,47.6186675],[-122.3264956,47.6106388],[-122.32915280000002,47.6085623],[-122.33139800000001,47.6076253],[-122.3342448,47.60737519999999]]]},"properties":{"ola":"Denny Park","distance":"1.0mi","distance_meters":1609.34,"center_lat":47.61937,"center_lng":-122.34108,"area_sqkm":5.446}},{"type":"Feature","geometry":{"type":"Polygon","coordinates":[[[-122.3290678,47.587033399999996],[-122.3341955,47.587348399999996],[-122.335128,47.587683500000004],[-122.3418114,47.59132689999999],[-122.37780390000002,47.6269534],[-122.3827035,47.6330091],[-122.3827112,47.63345340000001],[-122.38257079999998,47.6335853],[-122.3766065,47.6378645],[-122.35787930000001,47.649746700000016],[-122.35761350000001,47.6498574],[-122.35234390000001,47.6516582],[-122.34878340000002,47.6527999],[-122.34672739999999,47.6528861],[-122.3466808,47.6528862],[-122.3466352,47.652886200000005],[-122.34558969999999,47.6527972],[-122.32336780000001,47.6486839],[-122.3169679,47.6444205],[-122.3166846,47.64417949999999],[-122.2932337,47.6237457],[-122.29113380000001,47.620239399999996],[-122.29117540000001,47.6185966],[-122.29253309999999,47.6151971],[-122.29363290000002,47.61287329999999],[-122.30222560000001,47.60175739999998],[-122.30627000000001,47.59657740000001],[-122.3062791,47.5965668],[-122.3081067,47.59458130000001],[-122.3098518,47.5934498],[-122.32161690000001,47.5883402],[-122.3288778,47.58703340000001],[-122.3290678,47.587033399999996]]]},"properties":{"ola":"Denny Park","distance":"2.5mi","distance_meters":4023.36,"center_lat":47.61937,"center_lng":-122.34108,"area_sqkm":31.27}},{"type":"Feature","geometry":{"type":"MultiPolygon","coordinates":[[[[-122.33691540000001,47.61026579999999],[-122.3370622314628,47.610954265922736],[-122.3376308,47.6097452],[-122.3378641,47.609644],[-122.33829279999999,47.609465300000004],[-122.33878700000001,47.6094287],[-122.344877,47.60923280000001],[-122.3483563,47.61021420000001],[-122.35242030000002,47.6125264],[-122.352986,47.6185029],[-122.3527311,47.61868150000001],[-122.35063043697251,47.61934048583362],[-122.3502534,47.62020189999999],[-122.34784710000001,47.622153700000005],[-122.34634279999999,47.623147700000004],[-122.342503,47.62548530000001],[-122.339593,47.6255798],[-122.33954099999998,47.62557590000001],[-122.3377886,47.6245567],[-122.3364986,47.6237368],[-122.3326348,47.6210362],[-122.3323407,47.6208207],[-122.3317904351569,47.61986076185751],[-122.3278449,47.620890900000006],[-122.3239332,47.6198143],[-122.32391170000001,47.61980290000001],[-122.3193527,47.6151797],[-122.31932100000002,47.61417939999999],[-122.3193206,47.6140063],[-122.319857,47.612865799999994],[-122.32092,47.61155269999999],[-122.32133449999999,47.611042600000005],[-122.3216542,47.61069640000001],[-122.3232358,47.6090685],[-122.32404130000002,47.6086643],[-122.3245302,47.60851079999999],[-122.32458,47.6085059],[-122.33006590000001,47.608182],[-122.33178730000002,47.6083558],[-122.3321892,47.6084598],[-122.33691540000001,47.61026579999999]],[[-122.33680142714869,47.61334316514227],[-122.33672840132208,47.613670397745395],[-122.33681547868207,47.61362750576426],[-122.33680142714869,47.61334316514227]]],[[[-122.3751977,47.631314999999994],[-122.3749575,47.631701],[-122.374661,47.6318618],[-122.37375230000002,47.6319262],[-122.3618275,47.6259154],[-122.359814,47.62450219999999],[-122.3618528,47.62164229999999],[-122.3623408,47.6216091],[-122.36365410000002,47.62207849999999],[-122.3725941,47.6275221],[-122.372754,47.6276442],[-122.3751977,47.631314999999994]]],[[[-122.4016373,47.6521777],[-122.40163630000002,47.6523148],[-122.3962721,47.656019799999996],[-122.3943231,47.65715780000001],[-122.3902222,47.65654059999999],[-122.3875641,47.655878400000006],[-122.3874717,47.65584769999999],[-122.38483809999998,47.6540374],[-122.38330010000001,47.65039159999999],[-122.3832948,47.650274799999984],[-122.38590150000002,47.64834200000001],[-122.3901812,47.64570319999999],[-122.391496,47.64541679999999],[-122.3916942,47.645431899999984],[-122.3942724,47.64579369999999],[-122.39569890000001,47.646764299999994],[-122.4016373,47.6521777]]],[[[-122.34879070000001,47.6665502],[-122.3513447,47.671533499999995],[-122.34859,47.6752325],[-122.34843420000001,47.67541709999999],[-122.3471795,47.6760115],[-122.337605,47.672287],[-122.3374403,47.67216329999999],[-122.3367229,47.671535700000014],[-122.33694000000001,47.6708381],[-122.3379055,47.6686327],[-122.33861050000002,47.6672302],[-122.3403391,47.66578629999999],[-122.3419905,47.66493989999999],[-122.3444308,47.66494],[-122.3447314,47.664940599999994],[-122.34815349999998,47.66600119999998],[-122.3485166,47.66624209999999],[-122.34873130000001,47.6664834],[-122.34879070000001,47.6665502]]],[[[-122.4044702,47.68718119999999],[-122.40535439999998,47.692713999999995],[-122.4053916,47.6940145],[-122.4014432,47.69701439999999],[-122.3958494,47.6931284],[-122.392897,47.6909341],[-122.3925025,47.690588000000005],[-122.3924996,47.690509299999995],[-122.3942853,47.687659199999985],[-122.3963851,47.686820899999994],[-122.3970824,47.6866685],[-122.4033215,47.685850599999995],[-122.40398070000002,47.68620150000001],[-122.40427219999998,47.686609099999984],[-122.4044624,47.6871364],[-122.4044702,47.68718119999999]]],[[[-122.32593110000002,47.539133],[-122.32593470000002,47.5394059],[-122.3258681,47.539786],[-122.32335400000001,47.541229799999996],[-122.32225620000001,47.5413135],[-122.31999949999998,47.540998500000015],[-122.318789,47.53945960000001],[-122.3190242,47.53787810000001],[-122.31982900000001,47.536699],[-122.32092949999999,47.53562],[-122.32249900000001,47.53562589999999],[-122.3242488,47.5363616],[-122.325482,47.53725289999999],[-122.32593110000002,47.539133]]],[[[-122.2843969,47.5617849],[-122.28626290000001,47.56399909999999],[-122.286263,47.56410889999999],[-122.28616830000001,47.564214099999994],[-122.2775809,47.5706648],[-122.276904,47.5706598],[-122.2763436,47.570471899999994],[-122.2707991,47.567722],[-122.26800820000001,47.5657979],[-122.2677041,47.565514199999996],[-122.26764219999998,47.5654177],[-122.2674407,47.561807800000004],[-122.27571940000001,47.55704719999999],[-122.2807471,47.559453699999985],[-122.28344919999999,47.56100529999999],[-122.28370190000001,47.561171800000004],[-122.2843969,47.5617849]]],[[[-122.30425479999998,47.5848229],[-122.3068848,47.586918700000005],[-122.3085198,47.588374699999996],[-122.30853579999999,47.5884995],[-122.3042292,47.5923094],[-122.3033399,47.5927743],[-122.30254760000001,47.593146899999994],[-122.3025151,47.5931615],[-122.29772290000001,47.5933948],[-122.2967165,47.59338399999999],[-122.29651250000002,47.59338050000001],[-122.2943655,47.592220100000006],[-122.29107110000001,47.589416699999994],[-122.2915149,47.58730759999999],[-122.29397290000001,47.5851057],[-122.29576889999998,47.583635300000005],[-122.2974953,47.58272370000001],[-122.3004794,47.58284950000001],[-122.30163799999998,47.5833613],[-122.3024452,47.5837221],[-122.30425479999998,47.5848229]]],[[[-122.31738140000002,47.59930479999999],[-122.317351,47.599318700000005],[-122.31706900000002,47.599316],[-122.31668299999998,47.599151400000004],[-122.315357,47.5982636],[-122.3149039,47.5978836],[-122.31364400000001,47.5967644],[-122.31239289999999,47.591642199999995],[-122.31269419999998,47.590835199999994],[-122.31374720000001,47.5899283],[-122.3166303,47.58837549999999],[-122.31741020000001,47.58836480000001],[-122.318186,47.588365],[-122.3199021,47.59157080000001],[-122.3199359,47.597788599999994],[-122.31920949999999,47.5983482],[-122.31738140000002,47.59930479999999]]],[[[-122.32944410000002,47.638961900000005],[-122.3284818,47.6397884],[-122.32462040000001,47.6419869],[-122.3220952,47.64084689999999],[-122.3199465,47.6394865],[-122.31719579999998,47.63770519999999],[-122.3171953,47.637302600000005],[-122.31729749999998,47.636117500000005],[-122.31837689999999,47.6321192],[-122.3202003,47.631425],[-122.3239233,47.630137399999995],[-122.3295029,47.629518000000004],[-122.32999470000001,47.62960499999999],[-122.32997559999998,47.63052940000001],[-122.32967120000002,47.6384849],[-122.32944410000002,47.638961900000005]]],[[[-122.26500199999998,47.68225299999999],[-122.26478890000001,47.6839016],[-122.2642217,47.685717700000005],[-122.2641863,47.685787],[-122.26343159999999,47.686004499999996],[-122.2616919,47.6862287],[-122.2607687,47.686339699999984],[-122.24879460000001,47.685180199999984],[-122.24754589999999,47.68391350000001],[-122.24860770000001,47.682337999999994],[-122.2500761,47.6805911],[-122.2508115,47.6797857],[-122.2529015,47.6779356],[-122.2584966,47.6772935],[-122.2618825,47.67789979999999],[-122.26276800000001,47.678371299999995],[-122.2633415,47.678843299999976],[-122.26500199999998,47.68225299999999]]],[[[-122.3295644,47.7264343],[-122.3289414,47.726819199999994],[-122.3287842,47.726882799999984],[-122.3230643,47.7248571],[-122.3208882,47.72402129999998],[-122.3192314,47.7230685],[-122.3203436,47.7212429],[-122.32085570000001,47.720545699999995],[-122.32671720000002,47.71562240000001],[-122.3272531,47.71556629999999],[-122.3311295,47.71710910000001],[-122.3355546,47.7219524],[-122.33466340000001,47.7232049],[-122.3295644,47.7264343]]]]},"properties":{"ola":"__UNION_ALL_OLAS__","distance":"0.5mi","area_sqkm":12.661}},{"type":"Feature","geometry":{"type":"MultiPolygon","coordinates":[[[[-122.3551129,47.61361519999999],[-122.35570130000002,47.6140881],[-122.36009400000002,47.61807040000001],[-122.36083244656928,47.61926408567021],[-122.3778583,47.629813799999994],[-122.3834807,47.63331879999999],[-122.3836741,47.6336174],[-122.37682860000001,47.6383907],[-122.3764005,47.6385957],[-122.37598550000001,47.63870380000001],[-122.36038759999998,47.632252199999996],[-122.3553004,47.6288533],[-122.3529047,47.6272497],[-122.35217905096152,47.626722024167925],[-122.3515852,47.6271127],[-122.34875140000001,47.62885910000001],[-122.3429259,47.63237680000001],[-122.34097599999998,47.632663300000004],[-122.34043020000001,47.6325451],[-122.3358183777754,47.63086415222936],[-122.3275962,47.6462631],[-122.32592280000001,47.64736959999999],[-122.32466180000002,47.6479246],[-122.32223700000002,47.6486172],[-122.31954330000002,47.64696699999999],[-122.3176882,47.64569449999999],[-122.3164443,47.6444249],[-122.31153969999998,47.63810240000001],[-122.3114941,47.6380319],[-122.3084774,47.6322484],[-122.30925340000002,47.6305658],[-122.3105933,47.62875669999998],[-122.31267880000001,47.627583400000006],[-122.3167453,47.6253486],[-122.3194839346165,47.624312908635666],[-122.31772829999998,47.623177],[-122.31352760000001,47.620142599999994],[-122.31328520000001,47.6199046],[-122.31004780000002,47.6165009],[-122.30875870000001,47.614170300000005],[-122.3087603,47.6140417],[-122.3095289,47.6127991],[-122.3154432945097,47.60569472162443],[-122.3081035,47.60094769999999],[-122.30769,47.60061540000001],[-122.30623,47.5993432],[-122.30577082245074,47.598917369813186],[-122.3023464,47.6004065],[-122.2969524,47.6015793],[-122.29592190000001,47.600935799999995],[-122.2918402,47.5982486],[-122.28837110000002,47.5958085],[-122.2870266,47.594570399999995],[-122.2858625,47.590455199999994],[-122.28559290000001,47.58929619999999],[-122.2854947,47.5887708],[-122.2862149,47.58237930000001],[-122.2918392,47.578272999999996],[-122.2954119,47.57588899999999],[-122.2959703,47.575732],[-122.2963174,47.57572760000001],[-122.2965902,47.575728600000005],[-122.3002376,47.5763198],[-122.3042642,47.5776036],[-122.30528359999998,47.5782651],[-122.31257260469934,47.58315593621175],[-122.3127465,47.583046],[-122.3153606,47.5818227],[-122.31593820000002,47.581913],[-122.31605550000002,47.5819952],[-122.3292387,47.59619159999999],[-122.3288457,47.59934899999999],[-122.3262905,47.60178690000001],[-122.32572136076227,47.60229429894184],[-122.32772030000001,47.60225799999999],[-122.3292752,47.6022781],[-122.32987269999998,47.602335599999996],[-122.3319343,47.60264490000001],[-122.3341574,47.60302080000001],[-122.33521160881531,47.60323431788916],[-122.3372933,47.60313450000001],[-122.3386845,47.60370449999999],[-122.3419859,47.60552],[-122.3551129,47.61361519999999]]],[[[-122.40496270000001,47.64556129999999],[-122.40967380000001,47.65038130000001],[-122.4096766,47.65049679999999],[-122.40908239999999,47.65408909999999],[-122.40631590000001,47.656805199999994],[-122.3997562,47.66171409999999],[-122.3983129,47.6620536],[-122.39716750000001,47.6621953],[-122.39108020000002,47.66282399999999],[-122.38572009999999,47.661375099999994],[-122.3841112,47.66039270000001],[-122.3826353,47.659364999999994],[-122.3782133,47.65468769999999],[-122.375571,47.648587299999996],[-122.3755492,47.64836259999999],[-122.3756938,47.648140899999994],[-122.3838805,47.6425462],[-122.38714850000001,47.6403228],[-122.390262,47.6383424],[-122.3929303,47.6377608],[-122.39578440000001,47.639494899999995],[-122.3963603,47.639847],[-122.3982261,47.64108310000001],[-122.40496270000001,47.64556129999999]]],[[[-122.35285540000001,47.661345299999994],[-122.35533960000001,47.6629569],[-122.35724629999999,47.66424080000001],[-122.36069530000002,47.670810499999995],[-122.3609149,47.67228089999999],[-122.3609137,47.6724344],[-122.3585553,47.6759207],[-122.35838639999999,47.6760643],[-122.355883,47.6778409],[-122.35450220000001,47.67880950000001],[-122.349999,47.6814314],[-122.34678220000002,47.68256900000001],[-122.34649690000002,47.682629199999994],[-122.3443081,47.6829748],[-122.3440681,47.68294759999999],[-122.33016030000002,47.67880829999999],[-122.32795069999999,47.67601009999999],[-122.32795220000001,47.6759345],[-122.32816660000002,47.667980199999995],[-122.328358,47.667278599999996],[-122.3283759,47.66721419999998],[-122.3304051,47.664917599999995],[-122.33751330000001,47.660280199999995],[-122.3393391,47.659569700000006],[-122.34229390000002,47.65844630000001],[-122.3435392,47.6584454],[-122.3436348,47.6584462],[-122.3471206,47.658616499999994],[-122.35091180000002,47.66028949999999],[-122.35285540000001,47.661345299999994]]],[[[-122.4053916,47.6940145],[-122.4014432,47.69701439999999],[-122.39699059999998,47.6992219],[-122.394102,47.7002541],[-122.38223929999998,47.6912006],[-122.3816398,47.69065719999999],[-122.38164000000002,47.69052899999999],[-122.3842531,47.6867654],[-122.387352,47.6846178],[-122.38968460000001,47.68305180000001],[-122.39289910000001,47.680897900000005],[-122.39838890000001,47.6790548],[-122.39848949999998,47.67905490000001],[-122.40574,47.67967459999999],[-122.40609330000001,47.6798187],[-122.4062027,47.68000740000001],[-122.4053916,47.6940145]]],[[[-122.34139389999999,47.7167243],[-122.3457162,47.72248],[-122.3457165,47.7225186],[-122.3453338,47.723239599999985],[-122.345222,47.7233659],[-122.33821780000001,47.730543299999994],[-122.3343879,47.7323183],[-122.3287897,47.7339942],[-122.3282367,47.7337691],[-122.3164068,47.728642],[-122.3125589,47.7267158],[-122.31242979999999,47.726643599999996],[-122.3100046,47.71947560000001],[-122.3099845,47.719395],[-122.30998790000001,47.7193206],[-122.3127444,47.7171248],[-122.31393950000002,47.716358],[-122.31787049999998,47.71393849999999],[-122.33137750000002,47.7111489],[-122.3345148,47.7122952],[-122.3368912,47.713754400000006],[-122.3382587,47.714631],[-122.34139389999999,47.7167243]]],[[[-122.33242729999999,47.54230379999999],[-122.33247029999998,47.5434564],[-122.33222210000001,47.5455245],[-122.33203789999999,47.545669],[-122.32962180000001,47.546295799999996],[-122.32167020000001,47.54798050000001],[-122.321145,47.5480651],[-122.3208793,47.5480697],[-122.3179318,47.54808309999999],[-122.31742540000002,47.54789889999999],[-122.3189473,47.53796349999999],[-122.31982900000001,47.536699],[-122.32092949999999,47.53562],[-122.32249900000001,47.53562589999999],[-122.3242488,47.5363616],[-122.3309948,47.54076370000001],[-122.33242729999999,47.54230379999999]]],[[[-122.2942293,47.5607634],[-122.2949796,47.562873999999994],[-122.29246710000001,47.5671892],[-122.290843,47.569726300000006],[-122.28348170000001,47.57479839999999],[-122.2828689,47.5750179],[-122.2810609,47.57408959999999],[-122.26941799999999,47.56742059999999],[-122.268518,47.566576100000006],[-122.2677041,47.565514199999996],[-122.261514,47.55733730000001],[-122.2620922,47.5563292],[-122.2683476,47.5533646],[-122.2753979,47.55038009999999],[-122.2807806,47.552641],[-122.2889263,47.5566583],[-122.2916908,47.55854970000001],[-122.2942293,47.5607634]]],[[[-122.27169150000002,47.6775237],[-122.27363990000002,47.67933620000001],[-122.27364230000002,47.6794683],[-122.26844970000002,47.69119779999999],[-122.2479499,47.6853851],[-122.2462019,47.68351280000001],[-122.245844,47.6815193],[-122.25064579999999,47.674718399999996],[-122.2516553,47.67382489999999],[-122.25188100000001,47.67368449999999],[-122.26348520000002,47.6720575],[-122.2635535,47.672060300000005],[-122.2662817,47.67278219999999],[-122.2667446,47.672930900000004],[-122.27169150000002,47.6775237]]]]},"properties":{"ola":"__UNION_ALL_OLAS__","distance":"1.0mi","area_sqkm":45.922}},{"type":"Feature","geometry":{"type":"Polygon","coordinates":[[[-122.40343753616969,47.634283235742515],[-122.412518,47.638705699999996],[-122.4148504,47.64047279999999],[-122.4349381,47.6618455],[-122.43495179999998,47.6620283],[-122.42179509999998,47.667721399999984],[-122.4129303,47.671134499999994],[-122.40955790000001,47.67142739999999],[-122.40619530170893,47.67138231828166],[-122.40819460000002,47.67381189999999],[-122.4109789,47.677639500000005],[-122.4053916,47.6940145],[-122.4004157,47.697933199999994],[-122.39818609999999,47.699222999999996],[-122.37887689999998,47.70951250000001],[-122.3773414,47.70918919999999],[-122.3712264,47.7074846],[-122.3592703,47.703347099999995],[-122.35881890000002,47.70277089999999],[-122.35629793575347,47.69938241126391],[-122.35473170000002,47.70037409999999],[-122.35327136509282,47.70119983834179],[-122.35480890000001,47.7021753],[-122.35733149999999,47.704272499999995],[-122.37165250000001,47.7173132],[-122.3733151,47.722413],[-122.3726685,47.7236292],[-122.3680582,47.7294381],[-122.3615649,47.7341091],[-122.36140160000001,47.734114399999996],[-122.3599288,47.73412960000001],[-122.3567895,47.73413140000001],[-122.34752150000001,47.73413279999999],[-122.33304450000001,47.7341312],[-122.3109427,47.7339353],[-122.308676,47.733913199999996],[-122.29111690000002,47.733697100000015],[-122.2883688,47.73193619999999],[-122.2876044,47.7312719],[-122.2862678,47.729339200000005],[-122.2812172,47.7182268],[-122.2816528,47.7173185],[-122.28530390000002,47.7118815],[-122.2906406,47.70828530000001],[-122.30606740000002,47.69802129999999],[-122.306796,47.6975892],[-122.31589707790593,47.69347436539215],[-122.30962420000002,47.690256],[-122.30897680000001,47.689873299999995],[-122.30889349999998,47.6898196],[-122.30151368564688,47.681708206185405],[-122.29602809999999,47.697545999999996],[-122.2952247,47.6984498],[-122.2870761,47.704868899999994],[-122.28145940000002,47.70857290000001],[-122.28030490000002,47.708939900000004],[-122.27776640000002,47.70943869999999],[-122.2479499,47.6853851],[-122.2462019,47.68351280000001],[-122.245844,47.6815193],[-122.25064579999999,47.674718399999996],[-122.25252609999998,47.672717000000006],[-122.254021,47.67123029999998],[-122.25642039999998,47.669531199999994],[-122.27389610000002,47.65831229999999],[-122.27408999999999,47.658312599999995],[-122.27946670000001,47.658325],[-122.2800404,47.6583269],[-122.280123,47.6583282],[-122.2802272,47.65833039999999],[-122.2806751,47.65851029999999],[-122.2872939,47.66118449999999],[-122.29822214997445,47.67187680101642],[-122.30333579999999,47.6618594],[-122.30376156113108,47.6610533257545],[-122.3010008,47.6584332],[-122.28987400000001,47.6426449],[-122.28709834802196,47.63093980354807],[-122.2866065,47.630706800000006],[-122.2861803,47.6302744],[-122.28024620000001,47.616442899999996],[-122.28085387576813,47.614156571269504],[-122.272922880809,47.581744296069644],[-122.2479341,47.55690600000001],[-122.2466166,47.55311129999999],[-122.2646484,47.53326989999999],[-122.266546,47.531748500000006],[-122.2698606,47.53015469999999],[-122.2699919,47.5301548],[-122.27544160000001,47.53092149999999],[-122.2806007,47.5321648],[-122.295444,47.539628099999995],[-122.29601399999999,47.53995160000001],[-122.29779670491236,47.541060738706605],[-122.29808650000001,47.5329503],[-122.298281,47.532876699999996],[-122.32249900000001,47.53562589999999],[-122.3242488,47.5363616],[-122.3309948,47.54076370000001],[-122.33437050000002,47.5431959],[-122.3352714,47.5439376],[-122.3378262,47.54814749999999],[-122.34398240000002,47.56018329999999],[-122.34426290000002,47.560924],[-122.34409130000002,47.563213600000005],[-122.3418731,47.56449359999999],[-122.3398018,47.5650715],[-122.3368943,47.5658149],[-122.32504078010743,47.56846533773813],[-122.334212,47.5766078],[-122.3366932,47.5790292],[-122.34092782349686,47.588827645834165],[-122.36721175992646,47.61560561175198],[-122.40343753616969,47.634283235742515]]]},"properties":{"ola":"__UNION_ALL_OLAS__","distance":"2.5mi","area_sqkm":170.095}}]}