{"type":"FeatureCollection","features":[{"type":"Feature","geometry":{"type":"Polygon","coordinates":[[[-122.26337910000001,47.677985199999995],[-122.26405809999999,47.678891199999995],[-122.2643538,47.67937249999999],[-122.2644048,47.679516199999995],[-122.26500199999998,47.68225299999999],[-122.2651672,47.68361440000001],[-122.2650182,47.684759],[-122.26474969999998,47.685978500000004],[-122.2641848,47.686460099999984],[-122.2607687,47.686339699999984],[-122.2479499,47.6853851],[-122.24708720000001,47.684449099999995],[-122.2467278,47.6839525],[-122.2475701,47.68204819999999],[-122.2494624,47.6803022],[-122.2529015,47.6779356],[-122.25595290000001,47.676951],[-122.25835960000002,47.67670209999999],[-122.26337910000001,47.677985199999995]]]},"properties":{"ola":"Magnuson Park","distance":"0.5mi","distance_meters":804.67,"center_lat":47.6827,"center_lng":-122.2571,"area_sqkm":1.132}},{"type":"Feature","geometry":{"type":"Polygon","coordinates":[[[-122.2635535,47.672060300000005],[-122.2678227,47.6723467],[-122.27527410000002,47.679468799999995],[-122.2695357,47.691939999999995],[-122.2692328,47.6920365],[-122.2479499,47.6853851],[-122.2462019,47.68351280000001],[-122.245844,47.6815193],[-122.25064579999999,47.674718399999996],[-122.2516553,47.67382489999999],[-122.25188100000001,47.67368449999999],[-122.2628116,47.672055099999994],[-122.26338110000002,47.6720505],[-122.2635535,47.672060300000005]]]},"properties":{"ola":"Magnuson Park","distance":"1.0mi","distance_meters":1609.34,"center_lat":47.6827,"center_lng":-122.2571,"area_sqkm":3.289}},{"type":"Feature","geometry":{"type":"Polygon","coordinates":[[[-122.27877990000002,47.65760649999999],[-122.27884540000001,47.6576079],[-122.27932990000001,47.6576261],[-122.28158840000002,47.6583283],[-122.2871998,47.66051060000001],[-122.28782299999999,47.660839300000006],[-122.28823340000001,47.6611563],[-122.29949280000001,47.672089],[-122.3045325,47.6775909],[-122.3045327,47.6776054],[-122.29773250000001,47.6975184],[-122.2890442,47.7052167],[-122.2810312,47.71069670000001],[-122.2772236,47.7108918],[-122.27670310000002,47.710858200000004],[-122.2479499,47.6853851],[-122.2462019,47.68351280000001],[-122.245844,47.6815193],[-122.25064579999999,47.674718399999996],[-122.25252609999998,47.672717000000006],[-122.254021,47.67123029999998],[-122.25642039999998,47.669531199999994],[-122.27103989999999,47.6594409],[-122.2740897,47.65772299999999],[-122.27872290000002,47.65760529999999],[-122.27877990000002,47.65760649999999]]]},"properties":{"ola":"Magnuson Park","distance":"2.5mi","distance_meters":4023.36,"center_lat":47.6827,"center_lng":-122.2571,"area_sqkm":16.275}},{"type":"Feature","geometry":{"type":"Polygon","coordinates":[[[-122.3258681,47.539786],[-122.32335400000001,47.541229799999996],[-122.32225620000001,47.5413135],[-122.31999949999998,47.540998500000015],[-122.318789,47.53945960000001],[-122.3190242,47.53787810000001],[-122.31982900000001,47.536699],[-122.32092949999999,47.53562],[-122.34144808461873,47.52590874405126],[-122.3414423157594,47.52590338105449],[-122.34142579839038,47.525884351404045],[-122.34141211436041,47.52586431679416],[-122.34140139545156,47.52584347017014],[-122.34139374488963,47.52582201229717],[-122.34138923635014,47.52580014982689],[-122.34138791324891,47.525778093307196],[-122.34138978832414,47.52575605515452],[-122.34139484351385,47.525734247608135],[-122.34140303013001,47.525712880686214],[-122.34141426932747,47.52569216016321],[-122.34142845286368,47.52567228558822],[-122.34144544414092,47.525653448363215],[-122.3414650795221,47.52563582989972],[-122.34148716990669,47.5256195998719],[-122.34151150255191,47.525604914582445],[-122.34153784312156,47.52559191545738],[-122.34156593794286,47.52558072768413],[-122.34159551644925,47.525571459005874],[-122.34162629378619,47.52556419868407],[-122.34165797355426,47.52555901663874],[-122.34169025066352,47.52555596277523],[-122.34172281427165,47.52555506650355],[-122.3417553507773,47.52555633645522],[-122.34178754684011,47.52555976040006],[-122.34181909239821,47.52556530536407],[-122.3418496836541,47.525572917946846],[-122.34187902600031,47.525582524835976],[-122.34190683685651,47.525594033512924],[-122.34193284839067,47.52560733314403],[-122.34195681009862,47.52562229564788],[-122.34197849121632,47.52563877692874],[-122.34199768294226,47.525656618264186],[-122.34201420044835,47.525675647833665],[-122.34202788466004,47.52569568237322],[-122.34203860378823,47.525716528940286],[-122.34204625459871,47.52573798677182],[-122.34205076340646,47.5257598492178],[-122.34205208678527,47.525781905731264],[-122.34205021198632,47.525803943896],[-122.34204515706095,47.52582575147229],[-122.34203697068705,47.5258471184408],[-122.34202573170042,47.52586783902529],[-122.34201154833558,47.525887713674294],[-122.34199455718361,47.525906550983045],[-122.3419749218768,47.52592416953672],[-122.34195283151283,47.525940399657756],[-122.34192849883365,47.52595508503983],[-122.34190215817681,47.52596808425339],[-122.34187406321844,47.52597927210761],[-122.34184448453031,47.52598854085619],[-122.34181370697402,47.52599580123496],[-122.3417820269574,47.52600098332171],[-122.34174974957989,47.52600403720953],[-122.34171718569418,47.52600493348745],[-122.34168464891225,47.52600366352372],[-122.34165245258508,47.52600023954896],[-122.34162090678475,47.52599469453838],[-122.341590315318,47.52598708189411],[-122.34156097280044,47.52597747493094],[-122.34153316181899,47.52596596617028],[-122.34151823303213,47.525958333091225],[-122.3258681,47.539786]]]},"properties":{"ola":"Westcrest","distance":"0.5mi","distance_meters":804.67,"center_lat":47.52578,"center_lng":-122.34172,"area_sqkm":0.765}},{"type":"Feature","geometry":{"type":"Polygon","coordinates":[[[-122.33222210000001,47.5455245],[-122.33203789999999,47.545669],[-122.32962180000001,47.546295799999996],[-122.32167020000001,47.54798050000001],[-122.321145,47.5480651],[-122.3208793,47.5480697],[-122.3179318,47.54808309999999],[-122.31742540000002,47.54789889999999],[-122.3189473,47.53796349999999],[-122.31982900000001,47.536699],[-122.32092949999999,47.53562],[-122.34144808461873,47.52590874405126],[-122.3414423157594,47.52590338105449],[-122.34142579839038,47.525884351404045],[-122.34141211436041,47.52586431679416],[-122.34140139545156,47.52584347017014],[-122.34139374488963,47.52582201229717],[-122.34138923635014,47.52580014982689],[-122.34138791324891,47.525778093307196],[-122.34138978832414,47.52575605515452],[-122.34139484351385,47.525734247608135],[-122.34140303013001,47.525712880686214],[-122.34141426932747,47.52569216016321],[-122.34142845286368,47.52567228558822],[-122.34144544414092,47.525653448363215],[-122.3414650795221,47.52563582989972],[-122.34148716990669,47.5256195998719],[-122.34151150255191,47.525604914582445],[-122.34153784312156,47.52559191545738],[-122.34156593794286,47.52558072768413],[-122.34159551644925,47.525571459005874],[-122.34162629378619,47.52556419868407],[-122.34165797355426,47.52555901663874],[-122.34169025066352,47.52555596277523],[-122.34172281427165,47.52555506650355],[-122.3417553507773,47.52555633645522],[-122.34178754684011,47.52555976040006],[-122.34181909239821,47.52556530536407],[-122.3418496836541,47.525572917946846],[-122.34187902600031,47.525582524835976],[-122.34190683685651,47.525594033512924],[-122.34193284839067,47.52560733314403],[-122.34195681009862,47.52562229564788],[-122.34197849121632,47.52563877692874],[-122.34199768294226,47.525656618264186],[-122.34201420044835,47.525675647833665],[-122.34202788466004,47.52569568237322],[-122.34203860378823,47.525716528940286],[-122.34204625459871,47.52573798677182],[-122.34205076340646,47.5257598492178],[-122.34205208678527,47.525781905731264],[-122.34205021198632,47.525803943896],[-122.34204515706095,47.52582575147229],[-122.34203697068705,47.5258471184408],[-122.34202573170042,47.52586783902529],[-122.34201154833558,47.525887713674294],[-122.34199455718361,47.525906550983045],[-122.3419749218768,47.52592416953672],[-122.34195283151283,47.525940399657756],[-122.34192849883365,47.52595508503983],[-122.34190215817681,47.52596808425339],[-122.34187406321844,47.52597927210761],[-122.34184448453031,47.52598854085619],[-122.34181370697402,47.52599580123496],[-122.3417820269574,47.52600098332171],[-122.34174974957989,47.52600403720953],[-122.34171718569418,47.52600493348745],[-122.34168464891225,47.52600366352372],[-122.34165245258508,47.52600023954896],[-122.34162090678475,47.52599469453838],[-122.34161720700521,47.5259937738539],[-122.33222210000001,47.5455245]]]},"properties":{"ola":"Westcrest","distance":"1.0mi","distance_meters":1609.34,"center_lat":47.52578,"center_lng":-122.34172,"area_sqkm":2.182}},{"type":"Feature","geometry":{"type":"Polygon","coordinates":[[[-122.34426290000002,47.560924],[-122.34409130000002,47.563213600000005],[-122.3418731,47.56449359999999],[-122.3398018,47.5650715],[-122.3368943,47.5658149],[-122.3228379,47.568957899999994],[-122.32200860000002,47.5685649],[-122.3015846,47.558659600000006],[-122.2978677,47.556067299999995],[-122.2974423,47.55097940000001],[-122.29808650000001,47.5329503],[-122.298281,47.532876699999996],[-122.34139757100137,47.52583274356596],[-122.34139374488963,47.52582201229717],[-122.34138923635014,47.52580014982689],[-122.34138791324891,47.525778093307196],[-122.34138978832414,47.52575605515452],[-122.34139484351385,47.525734247608135],[-122.34140303013001,47.525712880686214],[-122.34141426932747,47.52569216016321],[-122.34142845286368,47.52567228558822],[-122.34144544414092,47.525653448363215],[-122.3414650795221,47.52563582989972],[-122.34148716990669,47.5256195998719],[-122.34151150255191,47.525604914582445],[-122.34153784312156,47.52559191545738],[-122.34156593794286,47.52558072768413],[-122.34159551644925,47.525571459005874],[-122.34162629378619,47.52556419868407],[-122.34165797355426,47.52555901663874],[-122.34169025066352,47.52555596277523],[-122.34172281427165,47.52555506650355],[-122.3417553507773,47.52555633645522],[-122.34178754684011,47.52555976040006],[-122.34181909239821,47.52556530536407],[-122.3418496836541,47.525572917946846],[-122.34187902600031,47.525582524835976],[-122.34190683685651,47.525594033512924],[-122.34193284839067,47.52560733314403],[-122.34195681009862,47.52562229564788],[-122.34197849121632,47.52563877692874],[-122.34199768294226,47.525656618264186],[-122.34201420044835,47.525675647833665],[-122.34202788466004,47.52569568237322],[-122.34203860378823,47.525716528940286],[-122.34204625459871,47.52573798677182],[-122.34205076340646,47.5257598492178],[-122.34205208678527,47.525781905731264],[-122.34205021198632,47.525803943896],[-122.34204515706095,47.52582575147229],[-122.34203697068705,47.5258471184408],[-122.34202573170042,47.52586783902529],[-122.34201154833558,47.525887713674294],[-122.34199455718361,47.525906550983045],[-122.3419749218768,47.52592416953672],[-122.34195283151283,47.525940399657756],[-122.34192849883365,47.52595508503983],[-122.34190215817681,47.52596808425339],[-122.34187406321844,47.52597927210761],[-122.34184448453031,47.52598854085619],[-122.34181370697402,47.52599580123496],[-122.3417820269574,47.52600098332171],[-122.34174974957989,47.52600403720953],[-122.34173622744078,47.52600440938968],[-122.34426290000002,47.560924]]]},"properties":{"ola":"Westcrest","distance":"2.5mi","distance_meters":4023.36,"center_lat":47.52578,"center_lng":-122.34172,"area_sqkm":13.37}},{"type":"Feature","geometry":{"type":"Polygon","coordinates":[[[-122.3199021,47.59157080000001],[-122.32144410000001,47.5957094],[-122.32144379999998,47.5959444],[-122.31976830000002,47.59906980000001],[-122.31963709999998,47.5992991],[-122.31735209999998,47.6005936],[-122.31727339999999,47.60059409999999],[-122.31607090000001,47.59994349999999],[-122.3152416,47.59944529999999],[-122.31255310000002,47.5974208],[-122.3122161,47.59595149999999],[-122.3115225,47.5899372],[-122.31368510000001,47.5884025],[-122.31718099999999,47.5864321],[-122.31741100000002,47.586328599999995],[-122.3199021,47.59157080000001]]]},"properties":{"ola":"Dr. Jose Rizal","distance":"0.5mi","distance_meters":804.67,"center_lat":47.59386,"center_lng":-122.31809,"area_sqkm":0.78}},{"type":"Feature","geometry":{"type":"Polygon","coordinates":[[[-122.3270147,47.59232110000001],[-122.328875,47.59458589999999],[-122.33040630000002,47.5974133],[-122.3304555,47.59751670000001],[-122.33047660000001,47.59781129999999],[-122.33039709999998,47.599277400000005],[-122.33022750000002,47.59961959999999],[-122.3291353,47.60077169999999],[-122.3269905,47.6027982],[-122.322749,47.60653630000001],[-122.3225242,47.60663379999999],[-122.32062220000002,47.6071283],[-122.31665230000002,47.607484],[-122.3140762,47.606103899999994],[-122.30648549999998,47.60110209999999],[-122.30625200000001,47.6009275],[-122.3042413,47.5991947],[-122.30331120000001,47.588463],[-122.3033102,47.5883266],[-122.30331089999999,47.5883125],[-122.30365049999999,47.5877722],[-122.30436690000002,47.58670179999999],[-122.31340850000001,47.5812101],[-122.31369580000002,47.5810623],[-122.31393230000002,47.58095699999999],[-122.3146068,47.5809459],[-122.31660820000002,47.5809276],[-122.3270147,47.59232110000001]]]},"properties":{"ola":"Dr. Jose Rizal","distance":"1.0mi","distance_meters":1609.34,"center_lat":47.59386,"center_lng":-122.31809,"area_sqkm":4.04}},{"type":"Feature","geometry":{"type":"Polygon","coordinates":[[[-122.3160941,47.5601232],[-122.31877509999998,47.561638800000004],[-122.3199386,47.56243],[-122.33524810000002,47.575898999999986],[-122.3366839,47.577760299999994],[-122.3525751,47.61251320000001],[-122.35241740000001,47.613329000000014],[-122.3489318,47.617007699999995],[-122.3472232,47.61834449999999],[-122.3470011,47.618503000000004],[-122.34566220000002,47.61922320000001],[-122.33572040000001,47.62443819999999],[-122.3345738,47.62491099999999],[-122.3266757,47.6270181],[-122.3265596,47.627045900000006],[-122.31811430000002,47.62850899999999],[-122.3162055,47.628757400000005],[-122.314687,47.6283587],[-122.3036801,47.62433189999999],[-122.29839530000001,47.62212049999999],[-122.297182,47.621432999999996],[-122.28467060000001,47.60920860000001],[-122.2833968,47.606909699999996],[-122.2832334,47.60513209999999],[-122.28198360000002,47.590181799999996],[-122.28348170000001,47.57479839999999],[-122.289119,47.5680488],[-122.28937830000001,47.5678754],[-122.3045998,47.5606709],[-122.30494960000001,47.56063149999999],[-122.3140993,47.559937700000006],[-122.3160941,47.5601232]]]},"properties":{"ola":"Dr. Jose Rizal","distance":"2.5mi","distance_meters":4023.36,"center_lat":47.59386,"center_lng":-122.31809,"area_sqkm":28.974}},{"type":"Feature","geometry":{"type":"Polygon","coordinates":[[[-122.2808159,47.5585825],[-122.28504920000002,47.56066309999999],[-122.2877244,47.5640334],[-122.28754969999999,47.5642435],[-122.2829931,47.567864199999995],[-122.28280660000001,47.56800189999999],[-122.2795559,47.57013679999999],[-122.27743949999999,47.5707037],[-122.2768995,47.57076099999999],[-122.2766586,47.570655],[-122.2707991,47.567722],[-122.26814550000002,47.56607629999999],[-122.2677041,47.565514199999996],[-122.26764219999998,47.5654177],[-122.267072,47.5616179],[-122.27571940000001,47.55704719999999],[-122.2808159,47.5585825]]]},"properties":{"ola":"Genesee","distance":"0.5mi","distance_meters":804.67,"center_lat":47.56395,"center_lng":-122.27608,"area_sqkm":1.496}},{"type":"Feature","geometry":{"type":"Polygon","coordinates":[[[-122.28078230000001,47.55158589999999],[-122.29071970000001,47.55692580000001],[-122.29509800000001,47.56048590000001],[-122.29549399999999,47.5609538],[-122.2961791,47.56215319999999],[-122.29517390000001,47.56624200000001],[-122.29156709999998,47.57018690000001],[-122.2838097,47.575963],[-122.26941799999999,47.56742059999999],[-122.268518,47.566576100000006],[-122.2677041,47.565514199999996],[-122.261514,47.55733730000001],[-122.26187630000001,47.5559792],[-122.27539750000001,47.5500568],[-122.28078230000001,47.55158589999999]]]},"properties":{"ola":"Genesee","distance":"1.0mi","distance_meters":1609.34,"center_lat":47.56395,"center_lng":-122.27608,"area_sqkm":4.431}},{"type":"Feature","geometry":{"type":"Polygon","coordinates":[[[-122.27544160000001,47.53092149999999],[-122.2806007,47.5321648],[-122.2881592,47.535228299999986],[-122.29721740000001,47.53942229999999],[-122.29821910000001,47.5400973],[-122.31628180000001,47.5533933],[-122.317744,47.55456569999999],[-122.318256,47.5550408],[-122.31913050000001,47.55629139999999],[-122.3201977,47.55863889999999],[-122.3204466,47.5599529],[-122.32031230000001,47.5634621],[-122.31985969999998,47.56628649999998],[-122.3179072,47.5759732],[-122.31610999999998,47.578577200000005],[-122.31394159999999,47.58114429999999],[-122.3122157,47.5830435],[-122.30723000000002,47.5884845],[-122.30599049999998,47.58925999999999],[-122.2878807,47.596549599999996],[-122.2874745,47.5965276],[-122.2874223,47.59652350000002],[-122.28711760000002,47.596414300000006],[-122.2479341,47.55690600000001],[-122.2466166,47.55311129999999],[-122.2646484,47.53326989999999],[-122.266546,47.531748500000006],[-122.2698606,47.53015469999999],[-122.2699919,47.5301548],[-122.27544160000001,47.53092149999999]]]},"properties":{"ola":"Genesee","distance":"2.5mi","distance_meters":4023.36,"center_lat":47.56395,"center_lng":-122.27608,"area_sqkm":25.214}},{"type":"Feature","geometry":{"type":"Polygon","coordinates":[[[-122.30034740000002,47.5817572],[-122.30096080000001,47.5820649],[-122.3042636,47.5841768],[-122.30620280000001,47.5855111],[-122.3096033,47.5883828],[-122.3096161,47.5884893],[-122.3076319,47.590424199999994],[-122.3051732,47.592203399999995],[-122.3037913,47.5931442],[-122.29778890000001,47.5954684],[-122.29747650000002,47.595482800000006],[-122.29227959999999,47.5921778],[-122.2912473,47.5913584],[-122.2903739,47.5900723],[-122.2903802,47.58993739999998],[-122.2905965,47.586671599999995],[-122.29184210000001,47.585075999999994],[-122.2969589,47.581367400000005],[-122.2972235,47.58128250000001],[-122.30034740000002,47.5817572]]]},"properties":{"ola":"Blue Dog Pond","distance":"0.5mi","distance_meters":804.67,"center_lat":47.58889,"center_lng":-122.29863,"area_sqkm":1.444}},{"type":"Feature","geometry":{"type":"Polygon","coordinates":[[[-122.3034358,47.5766447],[-122.3052858,47.57760389999999],[-122.3068345,47.57864059999999],[-122.31330160000002,47.583026499999995],[-122.3153505,47.584496099999996],[-122.31664270000002,47.585607200000005],[-122.31741100000002,47.586328599999995],[-122.3174119,47.5900631],[-122.3133627,47.59582],[-122.3120378,47.596730999999984],[-122.30887339999998,47.59840129999999],[-122.3022377,47.6011197],[-122.2969196,47.6026063],[-122.2959923,47.602218799999996],[-122.2874223,47.59652350000002],[-122.28717250000001,47.5961656],[-122.2870069,47.5957435],[-122.28559290000001,47.58929619999999],[-122.2854947,47.5887708],[-122.28513350000001,47.581622200000005],[-122.2953081,47.5746135],[-122.2955011,47.5745474],[-122.2966181,47.574312899999995],[-122.3034358,47.5766447]]]},"properties":{"ola":"Blue Dog Pond","distance":"1.0mi","distance_meters":1609.34,"center_lat":47.58889,"center_lng":-122.29863,"area_sqkm":5.283}},{"type":"Feature","geometry":{"type":"Polygon","coordinates":[[[-122.29047889999998,47.554365600000004],[-122.2956774,47.55469550000001],[-122.2958489,47.55472589999999],[-122.3040701,47.5573549],[-122.3142274,47.5612683],[-122.3149388,47.5616335],[-122.31885900000002,47.56435559999999],[-122.335129,47.5816338],[-122.33525119999999,47.58202369999999],[-122.339356,47.59898779999999],[-122.33916919999999,47.60286529999999],[-122.3385819,47.6037232],[-122.33625650000002,47.6065811],[-122.33402740000001,47.60910460000001],[-122.32892879999999,47.614266300000004],[-122.3278206,47.614794800000006],[-122.30234809999999,47.62259409999999],[-122.29689150000002,47.62370719999999],[-122.2954937,47.62385289999999],[-122.29502629999999,47.62374789999999],[-122.29472440000002,47.6236026],[-122.2813796,47.61653600000001],[-122.2681214,47.566029799999995],[-122.28279730000001,47.5552748],[-122.2887747,47.55432669999998],[-122.2893605,47.55432689999999],[-122.29047889999998,47.554365600000004]]]},"properties":{"ola":"Blue Dog Pond","distance":"2.5mi","distance_meters":4023.36,"center_lat":47.58889,"center_lng":-122.29863,"area_sqkm":29.34}},{"type":"Feature","geometry":{"type":"Polygon","coordinates":[[[-122.32796,47.715651400000006],[-122.3289141,47.71581239999999],[-122.332452,47.7171183],[-122.337349,47.72190689999999],[-122.33738490000002,47.7219678],[-122.33154409999999,47.7273665],[-122.3287858,47.728154999999994],[-122.3208354,47.7250365],[-122.3181174,47.72236310000001],[-122.3181124,47.7217275],[-122.31811790000002,47.72129060000001],[-122.3181305,47.7208367],[-122.318282,47.7196938],[-122.32671720000002,47.71562240000001],[-122.3272531,47.71556629999999],[-122.32796,47.715651400000006]]]},"properties":{"ola":"Northacres","distance":"0.5mi","distance_meters":804.67,"center_lat":47.72178,"center_lng":-122.32612,"area_sqkm":1.294}},{"type":"Feature","geometry":{"type":"Polygon","coordinates":[[[-122.33147800000002,47.710396299999985],[-122.3340537,47.711161999999995],[-122.33803050000002,47.71341209999999],[-122.34045060000001,47.7153332],[-122.3415092,47.7162172],[-122.34491850000002,47.7191851],[-122.34655640000001,47.7213494],[-122.3472514,47.72231540000001],[-122.3475505,47.723148800000004],[-122.3396505,47.7312339],[-122.3369453,47.7323151],[-122.3316147,47.73411769999999],[-122.32215650000002,47.733968999999995],[-122.31089900000002,47.7267016],[-122.3085221,47.71938169999999],[-122.3085259,47.71929839999999],[-122.31046970000001,47.71759039999999],[-122.3124603,47.7158836],[-122.317832,47.7127018],[-122.32326250000001,47.71108829999999],[-122.32852430000001,47.70989469999999],[-122.33147800000002,47.710396299999985]]]},"properties":{"ola":"Northacres","distance":"1.0mi","distance_meters":1609.34,"center_lat":47.72178,"center_lng":-122.32612,"area_sqkm":5.474}},{"type":"Feature","geometry":{"type":"Polygon","coordinates":[[[-122.327126,47.6889538],[-122.3366207,47.69061339999999],[-122.34496500000002,47.6950872],[-122.3471998,47.6964095],[-122.35851920000002,47.703537700000005],[-122.3686506,47.71259980000001],[-122.3717418,47.7157791],[-122.3734912,47.71774789999998],[-122.3733151,47.722413],[-122.3726685,47.7236292],[-122.3690157,47.72974520000001],[-122.36381440000001,47.73357390000001],[-122.3615649,47.7341091],[-122.36140160000001,47.734114399999996],[-122.3599288,47.73412960000001],[-122.3567895,47.73413140000001],[-122.34752150000001,47.73413279999999],[-122.33304450000001,47.7341312],[-122.3109427,47.7339353],[-122.308676,47.733913199999996],[-122.29111690000002,47.733697100000015],[-122.2870956,47.73228870000001],[-122.2865951,47.7320985],[-122.27936359999998,47.7169091],[-122.28316890000002,47.7121359],[-122.29094650000002,47.70671320000002],[-122.3049254,47.69751300000001],[-122.3175228,47.69123679999999],[-122.3228935,47.68961159999999],[-122.3270144,47.68895280000001],[-122.327126,47.6889538]]]},"properties":{"ola":"Northacres","distance":"2.5mi","distance_meters":4023.36,"center_lat":47.72178,"center_lng":-122.32612,"area_sqkm":25.843}},{"type":"Feature","geometry":{"type":"Polygon","coordinates":[[[-122.40427219999998,47.686609099999984],[-122.4044624,47.6871364],[-122.4044702,47.68718119999999],[-122.40535439999998,47.692713999999995],[-122.4053916,47.6940145],[-122.4014432,47.69701439999999],[-122.4008963,47.696970300000004],[-122.39692840000001,47.695104900000004],[-122.3908045,47.69064890000001],[-122.39079730000002,47.6905094],[-122.39079719999998,47.69046759999999],[-122.39293050000002,47.687065400000016],[-122.3932797,47.68683899999999],[-122.3982027,47.685112399999994],[-122.4033101,47.6851154],[-122.40427219999998,47.686609099999984]]]},"properties":{"ola":"Golden Gardens","distance":"0.5mi","distance_meters":804.67,"center_lat":47.6909,"center_lng":-122.40064,"area_sqkm":1.002}},{"type":"Feature","geometry":{"type":"Polygon","coordinates":[[[-122.3984839,47.67793869999999],[-122.4067591,47.678618199999995],[-122.4053916,47.6940145],[-122.4014432,47.69701439999999],[-122.39818609999999,47.699222999999996],[-122.39236020000001,47.70083599999999],[-122.3801253,47.690928899999996],[-122.3800138,47.6906839],[-122.37995269999999,47.6905213],[-122.3827308,47.6867758],[-122.3902553,47.68138019999999],[-122.39558849999999,47.678674699999995],[-122.3982969,47.677934],[-122.3984839,47.67793869999999]]]},"properties":{"ola":"Golden Gardens","distance":"1.0mi","distance_meters":1609.34,"center_lat":47.6909,"center_lng":-122.40064,"area_sqkm":3.388}},{"type":"Feature","geometry":{"type":"Polygon","coordinates":[[[-122.4002412,47.66711509999999],[-122.40100149999999,47.66735169999999],[-122.40388180000001,47.668706400000005],[-122.4039837,47.668785899999996],[-122.40430690000001,47.6690875],[-122.40819460000002,47.67381189999999],[-122.4109789,47.677639500000005],[-122.4053916,47.6940145],[-122.4004157,47.697933199999994],[-122.37939649999998,47.71033510000001],[-122.3785121,47.7107526],[-122.37061510000001,47.708585],[-122.3606804,47.70520270000001],[-122.35786090000002,47.703751100000005],[-122.3500413,47.69235989999999],[-122.34983470000002,47.6919615],[-122.3497512,47.6913753],[-122.34975,47.6912367],[-122.34981439999999,47.689772],[-122.35000870000002,47.6890639],[-122.3523368,47.685554899999985],[-122.3793819,47.664676699999994],[-122.3804109,47.663914199999994],[-122.38121049999998,47.6634926],[-122.4002412,47.66711509999999]]]},"properties":{"ola":"Golden Gardens","distance":"2.5mi","distance_meters":4023.36,"center_lat":47.6909,"center_lng":-122.40064,"area_sqkm":15.656}},{"type":"Feature","geometry":{"type":"Polygon","coordinates":[[[-122.350002,47.665734400000005],[-122.35161309999998,47.6716664],[-122.35005410000001,47.67465789999999],[-122.3483305,47.6761463],[-122.34681910000002,47.6764395],[-122.3356776,47.673816899999984],[-122.3354839,47.67370679999999],[-122.3353267,47.6729222],[-122.3362976,47.667894099999984],[-122.33638470000001,47.6677417],[-122.33839500000002,47.6658332],[-122.3392718,47.66509920000001],[-122.34091620000001,47.66436449999999],[-122.3429836,47.6638172],[-122.3444387,47.663515300000014],[-122.34475299999998,47.66350829999999],[-122.350002,47.665734400000005]]]},"properties":{"ola":"Lower Woodland","distance":"0.5mi","distance_meters":804.67,"center_lat":47.67042,"center_lng":-122.34431,"area_sqkm":1.292}},{"type":"Feature","geometry":{"type":"Polygon","coordinates":[[[-122.3505577,47.658888000000005],[-122.3544969,47.66134199999999],[-122.35650060000002,47.662618699999996],[-122.3590594,47.6643748],[-122.3596316,47.66516459999999],[-122.35965930000002,47.665221200000005],[-122.36092510000002,47.6708109],[-122.3609149,47.67228089999999],[-122.3609137,47.6724344],[-122.3593939,47.675919799999996],[-122.3551823,47.678812],[-122.3499975,47.68218569999999],[-122.34490950000001,47.6841004],[-122.3441866,47.68428519999999],[-122.3404095,47.68307320000001],[-122.3293114,47.67937010000001],[-122.32819160000001,47.67838819999999],[-122.32591079999999,47.6759918],[-122.3255692,47.675529],[-122.3253892,47.672907],[-122.3254498,47.66942],[-122.3254568,47.6692794],[-122.32569410000002,47.6686949],[-122.32813240000002,47.6649338],[-122.3355903,47.6602535],[-122.3374435,47.65909619999999],[-122.33983370000001,47.6579418],[-122.34235060000002,47.6573541],[-122.3471499,47.6572168],[-122.3505577,47.658888000000005]]]},"properties":{"ola":"Lower Woodland","distance":"1.0mi","distance_meters":1609.34,"center_lat":47.67042,"center_lng":-122.34431,"area_sqkm":5.791}},{"type":"Feature","geometry":{"type":"Polygon","coordinates":[[[-122.3458654,47.63692600000001],[-122.3496177,47.63735059999999],[-122.3545768,47.63989509999999],[-122.3570454,47.6413719],[-122.37588679999999,47.654214499999995],[-122.3915812,47.6686624],[-122.39300040000002,47.67086209999999],[-122.3930927,47.6723309],[-122.39308920000002,47.67246900000001],[-122.39290030000001,47.67290249999999],[-122.3908816,47.6759999],[-122.38877040000001,47.67775670000001],[-122.38421639999999,47.6812562],[-122.3627122,47.69605599999999],[-122.3600696,47.69785190000002],[-122.35085780000001,47.70290140000001],[-122.3501766,47.70324850000001],[-122.34738860000002,47.70437870000001],[-122.3446282,47.705272699999995],[-122.34454500000001,47.70527520000001],[-122.3440587,47.705142900000006],[-122.323212,47.698586899999995],[-122.3070613,47.69043459999999],[-122.29443309999999,47.6757153],[-122.30450790000002,47.65744419999999],[-122.3059,47.65635549999998],[-122.31305320000001,47.651312700000005],[-122.342904,47.63659189999999],[-122.3458654,47.63692600000001]]]},"properties":{"ola":"Lower Woodland","distance":"2.5mi","distance_meters":4023.36,"center_lat":47.67042,"center_lng":-122.34431,"area_sqkm":35.264}},{"type":"Feature","geometry":{"type":"Polygon","coordinates":[[[-122.33100100000001,47.6291757],[-122.32974449999999,47.63945429999999],[-122.32969260000002,47.6398632],[-122.3296594,47.63991070000001],[-122.3248392,47.6425258],[-122.3246322,47.642525400000004],[-122.3211757,47.64161359999999],[-122.32059890000001,47.64130250000001],[-122.3171939,47.63846159999999],[-122.31679100000001,47.631724999999996],[-122.31757190000002,47.63073719999999],[-122.3190823,47.6304376],[-122.3291204,47.6289146],[-122.330928,47.628871200000006],[-122.33100100000001,47.6291757]]]},"properties":{"ola":"I-5 Colonnade","distance":"0.5mi","distance_meters":804.67,"center_lat":47.63483,"center_lng":-122.32376,"area_sqkm":1.256}},{"type":"Feature","geometry":{"type":"Polygon","coordinates":[[[-122.33056749999999,47.6219018],[-122.3351929,47.62312029999999],[-122.33536040000001,47.623206800000006],[-122.339593,47.6255798],[-122.3275962,47.6462631],[-122.32506200000002,47.648205000000004],[-122.323262,47.6488226],[-122.3219857,47.649001999999996],[-122.318227,47.6469762],[-122.3161674,47.6456193],[-122.30658319999999,47.6323106],[-122.3065841,47.632239299999995],[-122.3071301,47.630554999999994],[-122.30852170000001,47.628746799999995],[-122.30854800000002,47.6287288],[-122.31119270000002,47.62693749999999],[-122.3127031,47.6260109],[-122.31894300000002,47.6230557],[-122.32522079999998,47.62204680000001],[-122.32904060000001,47.6215803],[-122.33056749999999,47.6219018]]]},"properties":{"ola":"I-5 Colonnade","distance":"1.0mi","distance_meters":1609.34,"center_lat":47.63483,"center_lng":-122.32376,"area_sqkm":4.629}},{"type":"Feature","geometry":{"type":"Polygon","coordinates":[[[-122.33916769999999,47.6043597],[-122.34051080000002,47.60481819999999],[-122.3419859,47.60552],[-122.3551129,47.61361519999999],[-122.35570130000002,47.6140881],[-122.36707830000002,47.6247185],[-122.3685803,47.6265324],[-122.3673569,47.6281594],[-122.36320530000002,47.6323253],[-122.33926409999998,47.65566220000001],[-122.33671730000002,47.65805629999999],[-122.33512370000001,47.6592229],[-122.3314656,47.66167269999999],[-122.3300636,47.662582099999995],[-122.3207799,47.66852180000001],[-122.32047160000002,47.6686731],[-122.3174653,47.6695065],[-122.31726560000001,47.669508799999996],[-122.3163962,47.66949869999999],[-122.31465510000001,47.668472],[-122.3040776,47.662141999999996],[-122.3036005,47.6617624],[-122.3006966,47.65903579999999],[-122.30014109999999,47.6583197],[-122.28987400000001,47.6426449],[-122.2853635,47.630713],[-122.28456599999998,47.62258799999999],[-122.29495450000002,47.61533699999999],[-122.2968404,47.61404970000001],[-122.30288369999998,47.61010049999999],[-122.310153,47.6059951],[-122.31773330000001,47.6017824],[-122.3182273,47.60170219999999],[-122.3194896,47.60159560000002],[-122.3208486,47.6015738],[-122.3209351,47.6015738],[-122.32135459999999,47.6015744],[-122.33916769999999,47.6043597]]]},"properties":{"ola":"I-5 Colonnade","distance":"2.5mi","distance_meters":4023.36,"center_lat":47.63483,"center_lng":-122.32376,"area_sqkm":29.832}},{"type":"Feature","geometry":{"type":"Polygon","coordinates":[[[-122.39359489999998,47.644560299999995],[-122.3970539,47.64676089999999],[-122.4035071,47.65217899999999],[-122.39565060000001,47.6577956],[-122.38952649999999,47.657749499999994],[-122.38889070000002,47.6576715],[-122.38551900000002,47.656213799999996],[-122.3822016,47.6507984],[-122.3820549,47.6505112],[-122.3820467,47.65032969999999],[-122.3820494,47.649803999999996],[-122.3840135,47.648345799999994],[-122.3903481,47.644548399999984],[-122.39284539999998,47.644537899999996],[-122.3930834,47.644537799999995],[-122.39359489999998,47.644560299999995]]]},"properties":{"ola":"Magnolia Manor","distance":"0.5mi","distance_meters":804.67,"center_lat":47.65155,"center_lng":-122.39198,"area_sqkm":1.563}},{"type":"Feature","geometry":{"type":"Polygon","coordinates":[[[-122.3971668,47.63945540000001],[-122.4005627,47.64156939999999],[-122.4059079,47.6455804],[-122.411406,47.650520400000005],[-122.4111389,47.6540281],[-122.4107597,47.654489899999994],[-122.4073775,47.65729040000001],[-122.406085,47.6582866],[-122.39945399999999,47.6624704],[-122.39168540000001,47.66371869999998],[-122.38605580000001,47.66151120000001],[-122.38572009999999,47.661375099999994],[-122.38486259999999,47.6608835],[-122.3841112,47.66039270000001],[-122.3772446,47.6558023],[-122.3735159,47.648591],[-122.3735102,47.64836660000001],[-122.3760714,47.64659710000001],[-122.3869357,47.639133199999996],[-122.39025850000002,47.6376284],[-122.39293170000002,47.63691289999999],[-122.39294229999999,47.63691289999999],[-122.3971668,47.63945540000001]]]},"properties":{"ola":"Magnolia Manor","distance":"1.0mi","distance_meters":1609.34,"center_lat":47.65155,"center_lng":-122.39198,"area_sqkm":5.366}},{"type":"Feature","geometry":{"type":"Polygon","coordinates":[[[-122.3830491,47.6283585],[-122.39508920000002,47.6305614],[-122.39899379999999,47.632118999999996],[-122.412518,47.638705699999996],[-122.4148504,47.64047279999999],[-122.43574890000001,47.661992299999994],[-122.42179509999998,47.667721399999984],[-122.4129303,47.671134499999994],[-122.40955790000001,47.67142739999999],[-122.37647320000002,47.6724393],[-122.3763957,47.672439299999986],[-122.3763849,47.67243919999999],[-122.37606140000001,47.672279],[-122.37375480000001,47.67085439999999],[-122.3660575,47.66581810000001],[-122.36390440000001,47.66431949999999],[-122.3466153,47.64880269999999],[-122.34588400000001,47.6437537],[-122.3458917,47.64348629999999],[-122.3662596,47.627517099999984],[-122.36839760000001,47.6264326],[-122.3830491,47.6283585]]]},"properties":{"ola":"Magnolia Manor","distance":"2.5mi","distance_meters":4023.36,"center_lat":47.65155,"center_lng":-122.39198,"area_sqkm":22.636}},{"type":"Feature","geometry":{"type":"Polygon","coordinates":[[[-122.3483563,47.61021420000001],[-122.3525751,47.61251320000001],[-122.35349000000001,47.6134905],[-122.3538337,47.61782580000001],[-122.3537184,47.61806820000001],[-122.35335130000001,47.618460099999986],[-122.353005,47.6186794],[-122.3502534,47.62020189999999],[-122.34776729999999,47.6208068],[-122.3464585,47.620980800000005],[-122.3448524,47.6210351],[-122.3448077,47.6210351],[-122.3399561,47.620996000000005],[-122.3396587,47.62096449999999],[-122.3391036,47.6205958],[-122.33625590000001,47.618452299999994],[-122.3353821,47.6136376],[-122.3353794,47.613605299999996],[-122.3355354,47.61218229999999],[-122.3361352,47.610464399999984],[-122.33683190000002,47.6088747],[-122.3369419,47.6086412],[-122.33820580000001,47.6083113],[-122.34291739999999,47.608173700000016],[-122.3483563,47.61021420000001]]]},"properties":{"ola":"Regrade","distance":"0.5mi","distance_meters":804.67,"center_lat":47.61435,"center_lng":-122.34478,"area_sqkm":1.585}},{"type":"Feature","geometry":{"type":"Polygon","coordinates":[[[-122.3551129,47.61361519999999],[-122.35570130000002,47.6140881],[-122.36009400000002,47.61807040000001],[-122.3608676,47.618833899999984],[-122.3624306,47.6211693],[-122.362432,47.6213058],[-122.3623408,47.6216091],[-122.36209260000001,47.621837099999986],[-122.3618527,47.622050599999994],[-122.3542075,47.6253602],[-122.35278990000002,47.6259234],[-122.34820590000001,47.627730699999994],[-122.343753,47.628093699999994],[-122.3421975,47.628094699999984],[-122.33802180000002,47.6273527],[-122.33751399999998,47.6272513],[-122.3302763,47.62213680000001],[-122.326655,47.6188896],[-122.32665099999998,47.6184208],[-122.3266727,47.6151351],[-122.32694919999999,47.6140066],[-122.32996959999998,47.6050459],[-122.33125210000001,47.6027529],[-122.3314785,47.6026588],[-122.3323606,47.60229940000001],[-122.3378191,47.6023285],[-122.3551129,47.61361519999999]]]},"properties":{"ola":"Regrade","distance":"1.0mi","distance_meters":1609.34,"center_lat":47.61435,"center_lng":-122.34478,"area_sqkm":4.912}},{"type":"Feature","geometry":{"type":"Polygon","coordinates":[[[-122.3832604,47.6319559],[-122.38490730000001,47.6337297],[-122.38491180000001,47.6340456],[-122.37839770000001,47.6391902],[-122.3783163,47.6392364],[-122.35212930000002,47.6473328],[-122.3512039,47.647332199999994],[-122.32602510000001,47.64417709999999],[-122.3240046,47.6432736],[-122.31996579999999,47.641435699999995],[-122.3161374,47.638345699999995],[-122.2975091,47.622588599999986],[-122.2962211,47.6202598],[-122.29601639999998,47.61898160000001],[-122.2955374,47.615365800000006],[-122.2955317,47.615213],[-122.2960585,47.61287409999999],[-122.30206090000001,47.59919459999999],[-122.3061023,47.5944417],[-122.30768229999998,47.59268850000001],[-122.32138580000002,47.5839397],[-122.3215699,47.5838636],[-122.32888280000002,47.58174259999999],[-122.334032,47.58085450000001],[-122.3343845,47.580793699999994],[-122.3832604,47.6319559]]]},"properties":{"ola":"Regrade","distance":"2.5mi","distance_meters":4023.36,"center_lat":47.61435,"center_lng":-122.34478,"area_sqkm":30.032}},{"type":"Feature","geometry":{"type":"Polygon","coordinates":[[[-122.3319522,47.60757619999999],[-122.3331658,47.60787],[-122.33785660000001,47.6096623],[-122.33798,47.6097675],[-122.33891870000001,47.6107806],[-122.337915,47.6163622],[-122.3375338,47.618025],[-122.33733930000001,47.61861799999999],[-122.3373227,47.618634099999994],[-122.3344821,47.6197717],[-122.3293264,47.6207631],[-122.32648660000001,47.621116199999996],[-122.3241026,47.620887499999995],[-122.32392340000001,47.6207824],[-122.32231709999999,47.6198038],[-122.3180582,47.6153662],[-122.31805400000002,47.6153594],[-122.3180477,47.61518159999999],[-122.31802799999998,47.61419029999999],[-122.31802679999998,47.614016],[-122.3180415,47.6137726],[-122.31823979999999,47.61287060000001],[-122.32093220000002,47.60961760000001],[-122.32230230000002,47.6080227],[-122.32431410000001,47.60771859999999],[-122.32807510000002,47.6075119],[-122.3294293,47.6074585],[-122.3319522,47.60757619999999]]]},"properties":{"ola":"Plymouth Pillars","distance":"0.5mi","distance_meters":804.67,"center_lat":47.61434,"center_lng":-122.32895,"area_sqkm":1.873}},{"type":"Feature","geometry":{"type":"Polygon","coordinates":[[[-122.3291122,47.60154599999999],[-122.33123230000001,47.6018509],[-122.3343314,47.6023211],[-122.3379752,47.6031212],[-122.3419859,47.60552],[-122.346436,47.60994229999999],[-122.3471395,47.6126676],[-122.34813939999998,47.618652600000004],[-122.3469655,47.61981959999999],[-122.3448422,47.62169489999999],[-122.3425623,47.6231],[-122.33679530000002,47.626375200000005],[-122.3341562,47.6271706],[-122.32719190000002,47.6283698],[-122.32549670000002,47.6282291],[-122.3236334,47.627779000000004],[-122.3223695,47.627123999999995],[-122.32025389999998,47.62599869999999],[-122.31926499999999,47.6253999],[-122.31357869999998,47.62119839999999],[-122.3128286,47.620547599999995],[-122.3087511,47.616619699999994],[-122.3084531,47.616080199999985],[-122.30738129999999,47.61403779999999],[-122.308185,47.6127955],[-122.31407219999998,47.6056093],[-122.31773330000001,47.6017824],[-122.3182273,47.60170219999999],[-122.3194896,47.60159560000002],[-122.3275526,47.601348400000006],[-122.3291122,47.60154599999999]]]},"properties":{"ola":"Plymouth Pillars","distance":"1.0mi","distance_meters":1609.34,"center_lat":47.61434,"center_lng":-122.32895,"area_sqkm":6.64}},{"type":"Feature","geometry":{"type":"Polygon","coordinates":[[[-122.3341922,47.580852699999994],[-122.335129,47.5816338],[-122.3718256,47.628338799999995],[-122.3725032,47.629753900000004],[-122.3475476,47.6443081],[-122.3456348,47.6446397],[-122.32466180000002,47.6479246],[-122.3227965,47.648110799999984],[-122.31894700000001,47.64691799999999],[-122.28476520000001,47.6313509],[-122.280375,47.617614599999996],[-122.28024620000001,47.616442899999996],[-122.28111390000001,47.613160499999985],[-122.2813557,47.61226849999999],[-122.2834542,47.60600409999999],[-122.28751460000001,47.6005922],[-122.2954099,47.5912065],[-122.3004524,47.58555960000001],[-122.3020527,47.58380580000001],[-122.3021227,47.5837447],[-122.30232470000001,47.5835947],[-122.3148506,47.58110489999999],[-122.32884380000002,47.579942599999995],[-122.3341922,47.580852699999994]]]},"properties":{"ola":"Plymouth Pillars","distance":"2.5mi","distance_meters":4023.36,"center_lat":47.61434,"center_lng":-122.32895,"area_sqkm":34.949}},{"type":"Feature","geometry":{"type":"Polygon","coordinates":[[[-122.3612457,47.6206327],[-122.3623921,47.621058500000004],[-122.3725941,47.6275221],[-122.372754,47.6276442],[-122.37562990000002,47.631268],[-122.3759211,47.63226010000001],[-122.37566480000001,47.63250080000001],[-122.37107670000002,47.6335986],[-122.3678579,47.633678800000006],[-122.36781909999999,47.633678199999984],[-122.3662879,47.6335985],[-122.36517800000001,47.633464100000005],[-122.3651727,47.6334611],[-122.36316300000001,47.6322339],[-122.36170910000001,47.6312638],[-122.35934130000001,47.6296551],[-122.3580558,47.6286775],[-122.35793690000001,47.6277852],[-122.35793560000002,47.627731],[-122.3579031,47.62448739999999],[-122.35947840000001,47.6222002],[-122.36055610000001,47.62103479999999],[-122.3606591,47.62095560000001],[-122.36111930000001,47.620602700000006],[-122.3612457,47.6206327]]]},"properties":{"ola":"Kinnear","distance":"0.5mi","distance_meters":804.67,"center_lat":47.62696,"center_lng":-122.36766,"area_sqkm":1.169}},{"type":"Feature","geometry":{"type":"Polygon","coordinates":[[[-122.3556527,47.61551649999999],[-122.3832604,47.6319559],[-122.3836741,47.6336174],[-122.37800550000001,47.63898349999999],[-122.37795240000001,47.639015199999996],[-122.37640109999998,47.6394619],[-122.3700754,47.64097809999999],[-122.3664122,47.640762],[-122.365963,47.640717099999996],[-122.3635246,47.63966869999999],[-122.35952790000002,47.63724090000001],[-122.3581945,47.6363763],[-122.3487436,47.6297996],[-122.34765780000001,47.628855300000005],[-122.3469192,47.627088500000006],[-122.34734330000002,47.624329999999986],[-122.35231290000002,47.616934],[-122.3531507,47.6162341],[-122.35417969999999,47.6154487],[-122.354744,47.61536759999999],[-122.3556527,47.61551649999999]]]},"properties":{"ola":"Kinnear","distance":"1.0mi","distance_meters":1609.34,"center_lat":47.62696,"center_lng":-122.36766,"area_sqkm":4.358}},{"type":"Feature","geometry":{"type":"Polygon","coordinates":[[[-122.33646530000001,47.599183800000006],[-122.4072467,47.636247199999985],[-122.4106067,47.638203600000004],[-122.40952550000002,47.64025509999999],[-122.3873626,47.65645039999999],[-122.3762314,47.659551400000005],[-122.34976579999999,47.6536751],[-122.3466732,47.65220390000001],[-122.3240355,47.63487370000001],[-122.32072040000001,47.618848099999994],[-122.32072009999999,47.61881150000001],[-122.32072400000001,47.61867819999999],[-122.32137180000001,47.617637900000005],[-122.331258,47.6017941],[-122.3314587,47.6016432],[-122.333528,47.6001222],[-122.33484529999998,47.599284100000006],[-122.33548040000001,47.599101100000006],[-122.33600780000002,47.5990991],[-122.33607680000001,47.599099200000005],[-122.33646530000001,47.599183800000006]]]},"properties":{"ola":"Kinnear","distance":"2.5mi","distance_meters":4023.36,"center_lat":47.62696,"center_lng":-122.36766,"area_sqkm":25.121}},{"type":"Feature","geometry":{"type":"Polygon","coordinates":[[[-122.3465743,47.61325349999999],[-122.34671660000001,47.6133387],[-122.34877020000002,47.614568500000004],[-122.3489441,47.6146765],[-122.3495524,47.615273],[-122.35121910000001,47.61778199999999],[-122.35142640000001,47.61850260000001],[-122.3515947,47.6199472],[-122.3515957,47.62001970000001],[-122.3515933,47.62008729999999],[-122.35039549999999,47.621509],[-122.34778739999999,47.6233296],[-122.3435614,47.625922499999994],[-122.3424939,47.626356900000005],[-122.3398838,47.626629],[-122.3395738,47.6266185],[-122.3382426,47.6260535],[-122.33596700000001,47.62444730000001],[-122.3310783,47.620820699999996],[-122.33076910000001,47.618617],[-122.33193620000002,47.6159136],[-122.33232980000001,47.6153747],[-122.33291330000002,47.614636899999994],[-122.33345820000001,47.6142239],[-122.33383899999998,47.6140289],[-122.337206,47.6126322],[-122.33748540000002,47.612543599999995],[-122.3465743,47.61325349999999]]]},"properties":{"ola":"Denny Park","distance":"0.5mi","distance_meters":804.67,"center_lat":47.61937,"center_lng":-122.34108,"area_sqkm":1.765}},{"type":"Feature","geometry":{"type":"Polygon","coordinates":[[[-122.338953,47.6068165],[-122.34085290000002,47.6070757],[-122.34203260000001,47.60729220000001],[-122.3483563,47.61021420000001],[-122.3551129,47.61361519999999],[-122.35570130000002,47.6140881],[-122.36147299999999,47.6203134],[-122.3615827,47.6212024],[-122.36054950000002,47.62220299999999],[-122.3568726,47.6246852],[-122.3515684,47.6281776],[-122.34800100000001,47.630439499999994],[-122.34292400000001,47.6334766],[-122.3424471,47.63347679999999],[-122.34031529999999,47.6334489],[-122.3401217,47.633443],[-122.3301028,47.629655],[-122.32999470000001,47.62960499999999],[-122.32985600000002,47.6295404],[-122.321563,47.61998249999999],[-122.32072040000001,47.618848099999994],[-122.32072009999999,47.61881150000001],[-122.32072400000001,47.61867819999999],[-122.3245548,47.6129273],[-122.3248603,47.6124983],[-122.3259686,47.61096839999999],[-122.3283507,47.6078114],[-122.32843769999998,47.6077733],[-122.3305652,47.606958999999996],[-122.3317784,47.60665699999999],[-122.33314469999999,47.60652429999999],[-122.338953,47.6068165]]]},"properties":{"ola":"Denny Park","distance":"1.0mi","distance_meters":1609.34,"center_lat":47.61937,"center_lng":-122.34108,"area_sqkm":5.972}},{"type":"Feature","geometry":{"type":"Polygon","coordinates":[[[-122.3344053,47.58619000000001],[-122.3418114,47.59132689999999],[-122.3832604,47.6319559],[-122.3836741,47.6336174],[-122.37738300000001,47.63838559999999],[-122.37682580000002,47.6387814],[-122.35903200000001,47.65051429999998],[-122.34976579999999,47.6536751],[-122.3475448,47.6542016],[-122.34713780000001,47.6541997],[-122.32301259999998,47.6495517],[-122.3189471,47.6468518],[-122.31721040000001,47.645694],[-122.29307420000002,47.623744699999996],[-122.29209770000001,47.6225719],[-122.29117990000002,47.62138829999999],[-122.2910922,47.61955],[-122.2912371,47.616512699999994],[-122.29363290000002,47.61287329999999],[-122.296383,47.608953899999996],[-122.3034324,47.599188700000006],[-122.3063319,47.595958199999984],[-122.3077454,47.5944567],[-122.3098518,47.5934498],[-122.321596,47.58810449999999],[-122.3234699,47.5873952],[-122.32888259999999,47.5859821],[-122.3344053,47.58619000000001]]]},"properties":{"ola":"Denny Park","distance":"2.5mi","distance_meters":4023.36,"center_lat":47.61937,"center_lng":-122.34108,"area_sqkm":32.358}},{"type":"Feature","geometry":{"type":"MultiPolygon","coordinates":[[[[-122.31999949999998,47.540998500000015],[-122.318789,47.53945960000001],[-122.3190242,47.53787810000001],[-122.31982900000001,47.536699],[-122.32092949999999,47.53562],[-122.34144808461873,47.52590874405126],[-122.3414423157594,47.52590338105449],[-122.34142579839038,47.525884351404045],[-122.34141211436041,47.52586431679416],[-122.34140139545156,47.52584347017014],[-122.34139374488963,47.52582201229717],[-122.34138923635014,47.52580014982689],[-122.34138791324891,47.525778093307196],[-122.34138978832414,47.52575605515452],[-122.34139484351385,47.525734247608135],[-122.34140303013001,47.525712880686214],[-122.34141426932747,47.52569216016321],[-122.34142845286368,47.52567228558822],[-122.34144544414092,47.525653448363215],[-122.3414650795221,47.52563582989972],[-122.34148716990669,47.5256195998719],[-122.34151150255191,47.525604914582445],[-122.34153784312156,47.52559191545738],[-122.34156593794286,47.52558072768413],[-122.34159551644925,47.525571459005874],[-122.34162629378619,47.52556419868407],[-122.34165797355426,47.52555901663874],[-122.34169025066352,47.52555596277523],[-122.34172281427165,47.52555506650355],[-122.3417553507773,47.52555633645522],[-122.34178754684011,47.52555976040006],[-122.34181909239821,47.52556530536407],[-122.3418496836541,47.525572917946846],[-122.34187902600031,47.525582524835976],[-122.34190683685651,47.525594033512924],[-122.34193284839067,47.52560733314403],[-122.34195681009862,47.52562229564788],[-122.34197849121632,47.52563877692874],[-122.34199768294226,47.525656618264186],[-122.34201420044835,47.525675647833665],[-122.34202788466004,47.52569568237322],[-122.34203860378823,47.525716528940286],[-122.34204625459871,47.52573798677182],[-122.34205076340646,47.5257598492178],[-122.34205208678527,47.525781905731264],[-122.34205021198632,47.525803943896],[-122.34204515706095,47.52582575147229],[-122.34203697068705,47.5258471184408],[-122.34202573170042,47.52586783902529],[-122.34201154833558,47.525887713674294],[-122.34199455718361,47.525906550983045],[-122.3419749218768,47.52592416953672],[-122.34195283151283,47.525940399657756],[-122.34192849883365,47.52595508503983],[-122.34190215817681,47.52596808425339],[-122.34187406321844,47.52597927210761],[-122.34184448453031,47.52598854085619],[-122.34181370697402,47.52599580123496],[-122.3417820269574,47.52600098332171],[-122.34174974957989,47.52600403720953],[-122.34171718569418,47.52600493348745],[-122.34168464891225,47.52600366352372],[-122.34165245258508,47.52600023954896],[-122.34162090678475,47.52599469453838],[-122.341590315318,47.52598708189411],[-122.34156097280044,47.52597747493094],[-122.34153316181899,47.52596596617028],[-122.34151823303213,47.525958333091225],[-122.3258681,47.539786],[-122.32335400000001,47.541229799999996],[-122.32225620000001,47.5413135],[-122.31999949999998,47.540998500000015]]],[[[-122.3537184,47.61806820000001],[-122.35335130000001,47.618460099999986],[-122.353005,47.6186794],[-122.3515413486244,47.619489259434275],[-122.3515947,47.6199472],[-122.3515957,47.62001970000001],[-122.3515933,47.62008729999999],[-122.35039549999999,47.621509],[-122.34778739999999,47.6233296],[-122.3435614,47.625922499999994],[-122.3424939,47.626356900000005],[-122.3398838,47.626629],[-122.3395738,47.6266185],[-122.3382426,47.6260535],[-122.33596700000001,47.62444730000001],[-122.3310783,47.620820699999996],[-122.33102440532119,47.62043658711612],[-122.3293264,47.6207631],[-122.32648660000001,47.621116199999996],[-122.3241026,47.620887499999995],[-122.32392340000001,47.6207824],[-122.32231709999999,47.6198038],[-122.3180582,47.6153662],[-122.31805400000002,47.6153594],[-122.3180477,47.61518159999999],[-122.31802799999998,47.61419029999999],[-122.31802679999998,47.614016],[-122.3180415,47.6137726],[-122.31823979999999,47.61287060000001],[-122.32093220000002,47.60961760000001],[-122.32230230000002,47.6080227],[-122.32431410000001,47.60771859999999],[-122.32807510000002,47.6075119],[-122.3294293,47.6074585],[-122.3319522,47.60757619999999],[-122.3331658,47.60787],[-122.33668321490553,47.60921396323339],[-122.33683190000002,47.6088747],[-122.3369419,47.6086412],[-122.33820580000001,47.6083113],[-122.34291739999999,47.608173700000016],[-122.3483563,47.61021420000001],[-122.3525751,47.61251320000001],[-122.35349000000001,47.6134905],[-122.3538337,47.61782580000001],[-122.3537184,47.61806820000001]]],[[[-122.37562990000002,47.631268],[-122.3759211,47.63226010000001],[-122.37566480000001,47.63250080000001],[-122.37107670000002,47.6335986],[-122.3678579,47.633678800000006],[-122.36781909999999,47.633678199999984],[-122.3662879,47.6335985],[-122.36517800000001,47.633464100000005],[-122.3651727,47.6334611],[-122.36316300000001,47.6322339],[-122.36170910000001,47.6312638],[-122.35934130000001,47.6296551],[-122.3580558,47.6286775],[-122.35793690000001,47.6277852],[-122.35793560000002,47.627731],[-122.3579031,47.62448739999999],[-122.35947840000001,47.6222002],[-122.36055610000001,47.62103479999999],[-122.3606591,47.62095560000001],[-122.36111930000001,47.620602700000006],[-122.3612457,47.6206327],[-122.3623921,47.621058500000004],[-122.3725941,47.6275221],[-122.372754,47.6276442],[-122.37562990000002,47.631268]]],[[[-122.38952649999999,47.657749499999994],[-122.38889070000002,47.6576715],[-122.38551900000002,47.656213799999996],[-122.3822016,47.6507984],[-122.3820549,47.6505112],[-122.3820467,47.65032969999999],[-122.3820494,47.649803999999996],[-122.3840135,47.648345799999994],[-122.3903481,47.644548399999984],[-122.39284539999998,47.644537899999996],[-122.3930834,47.644537799999995],[-122.39359489999998,47.644560299999995],[-122.3970539,47.64676089999999],[-122.4035071,47.65217899999999],[-122.39565060000001,47.6577956],[-122.38952649999999,47.657749499999994]]],[[[-122.34681910000002,47.6764395],[-122.3356776,47.673816899999984],[-122.3354839,47.67370679999999],[-122.3353267,47.6729222],[-122.3362976,47.667894099999984],[-122.33638470000001,47.6677417],[-122.33839500000002,47.6658332],[-122.3392718,47.66509920000001],[-122.34091620000001,47.66436449999999],[-122.3429836,47.6638172],[-122.3444387,47.663515300000014],[-122.34475299999998,47.66350829999999],[-122.350002,47.665734400000005],[-122.35161309999998,47.6716664],[-122.35005410000001,47.67465789999999],[-122.3483305,47.6761463],[-122.34681910000002,47.6764395]]],[[[-122.4053916,47.6940145],[-122.4014432,47.69701439999999],[-122.4008963,47.696970300000004],[-122.39692840000001,47.695104900000004],[-122.3908045,47.69064890000001],[-122.39079730000002,47.6905094],[-122.39079719999998,47.69046759999999],[-122.39293050000002,47.687065400000016],[-122.3932797,47.68683899999999],[-122.3982027,47.685112399999994],[-122.4033101,47.6851154],[-122.40427219999998,47.686609099999984],[-122.4044624,47.6871364],[-122.4044702,47.68718119999999],[-122.40535439999998,47.692713999999995],[-122.4053916,47.6940145]]],[[[-122.28754969999999,47.5642435],[-122.2829931,47.567864199999995],[-122.28280660000001,47.56800189999999],[-122.2795559,47.57013679999999],[-122.27743949999999,47.5707037],[-122.2768995,47.57076099999999],[-122.2766586,47.570655],[-122.2707991,47.567722],[-122.26814550000002,47.56607629999999],[-122.2677041,47.565514199999996],[-122.26764219999998,47.5654177],[-122.267072,47.5616179],[-122.27571940000001,47.55704719999999],[-122.2808159,47.5585825],[-122.28504920000002,47.56066309999999],[-122.2877244,47.5640334],[-122.28754969999999,47.5642435]]],[[[-122.3096033,47.5883828],[-122.3096161,47.5884893],[-122.3076319,47.590424199999994],[-122.3051732,47.592203399999995],[-122.3037913,47.5931442],[-122.29778890000001,47.5954684],[-122.29747650000002,47.595482800000006],[-122.29227959999999,47.5921778],[-122.2912473,47.5913584],[-122.2903739,47.5900723],[-122.2903802,47.58993739999998],[-122.2905965,47.586671599999995],[-122.29184210000001,47.585075999999994],[-122.2969589,47.581367400000005],[-122.2972235,47.58128250000001],[-122.30034740000002,47.5817572],[-122.30096080000001,47.5820649],[-122.3042636,47.5841768],[-122.30620280000001,47.5855111],[-122.3096033,47.5883828]]],[[[-122.31963709999998,47.5992991],[-122.31735209999998,47.6005936],[-122.31727339999999,47.60059409999999],[-122.31607090000001,47.59994349999999],[-122.3152416,47.59944529999999],[-122.31255310000002,47.5974208],[-122.3122161,47.59595149999999],[-122.3115225,47.5899372],[-122.31368510000001,47.5884025],[-122.31718099999999,47.5864321],[-122.31741100000002,47.586328599999995],[-122.3199021,47.59157080000001],[-122.32144410000001,47.5957094],[-122.32144379999998,47.5959444],[-122.31976830000002,47.59906980000001],[-122.31963709999998,47.5992991]]],[[[-122.3248392,47.6425258],[-122.3246322,47.642525400000004],[-122.3211757,47.64161359999999],[-122.32059890000001,47.64130250000001],[-122.3171939,47.63846159999999],[-122.31679100000001,47.631724999999996],[-122.31757190000002,47.63073719999999],[-122.3190823,47.6304376],[-122.3291204,47.6289146],[-122.330928,47.628871200000006],[-122.33100100000001,47.6291757],[-122.32974449999999,47.63945429999999],[-122.32969260000002,47.6398632],[-122.3296594,47.63991070000001],[-122.3248392,47.6425258]]],[[[-122.26500199999998,47.68225299999999],[-122.2651672,47.68361440000001],[-122.2650182,47.684759],[-122.26474969999998,47.685978500000004],[-122.2641848,47.686460099999984],[-122.2607687,47.686339699999984],[-122.2479499,47.6853851],[-122.24708720000001,47.684449099999995],[-122.2467278,47.6839525],[-122.2475701,47.68204819999999],[-122.2494624,47.6803022],[-122.2529015,47.6779356],[-122.25595290000001,47.676951],[-122.25835960000002,47.67670209999999],[-122.26337910000001,47.677985199999995],[-122.26405809999999,47.678891199999995],[-122.2643538,47.67937249999999],[-122.2644048,47.679516199999995],[-122.26500199999998,47.68225299999999]]],[[[-122.33738490000002,47.7219678],[-122.33154409999999,47.7273665],[-122.3287858,47.728154999999994],[-122.3208354,47.7250365],[-122.3181174,47.72236310000001],[-122.3181124,47.7217275],[-122.31811790000002,47.72129060000001],[-122.3181305,47.7208367],[-122.318282,47.7196938],[-122.32671720000002,47.71562240000001],[-122.3272531,47.71556629999999],[-122.32796,47.715651400000006],[-122.3289141,47.71581239999999],[-122.332452,47.7171183],[-122.337349,47.72190689999999],[-122.33738490000002,47.7219678]]]]},"properties":{"ola":"__UNION_ALL_OLAS__","distance":"0.5mi","area_sqkm":17.12}},{"type":"Feature","geometry":{"type":"MultiPolygon","coordinates":[[[[-122.32167020000001,47.54798050000001],[-122.321145,47.5480651],[-122.3208793,47.5480697],[-122.3179318,47.54808309999999],[-122.31742540000002,47.54789889999999],[-122.3189473,47.53796349999999],[-122.31982900000001,47.536699],[-122.32092949999999,47.53562],[-122.34144808461873,47.52590874405126],[-122.3414423157594,47.52590338105449],[-122.34142579839038,47.525884351404045],[-122.34141211436041,47.52586431679416],[-122.34140139545156,47.52584347017014],[-122.34139374488963,47.52582201229717],[-122.34138923635014,47.52580014982689],[-122.34138791324891,47.525778093307196],[-122.34138978832414,47.52575605515452],[-122.34139484351385,47.525734247608135],[-122.34140303013001,47.525712880686214],[-122.34141426932747,47.52569216016321],[-122.34142845286368,47.52567228558822],[-122.34144544414092,47.525653448363215],[-122.3414650795221,47.52563582989972],[-122.34148716990669,47.5256195998719],[-122.34151150255191,47.525604914582445],[-122.34153784312156,47.52559191545738],[-122.34156593794286,47.52558072768413],[-122.34159551644925,47.525571459005874],[-122.34162629378619,47.52556419868407],[-122.34165797355426,47.52555901663874],[-122.34169025066352,47.52555596277523],[-122.34172281427165,47.52555506650355],[-122.3417553507773,47.52555633645522],[-122.34178754684011,47.52555976040006],[-122.34181909239821,47.52556530536407],[-122.3418496836541,47.525572917946846],[-122.34187902600031,47.525582524835976],[-122.34190683685651,47.525594033512924],[-122.34193284839067,47.52560733314403],[-122.34195681009862,47.52562229564788],[-122.34197849121632,47.52563877692874],[-122.34199768294226,47.525656618264186],[-122.34201420044835,47.525675647833665],[-122.34202788466004,47.52569568237322],[-122.34203860378823,47.525716528940286],[-122.34204625459871,47.52573798677182],[-122.34205076340646,47.5257598492178],[-122.34205208678527,47.525781905731264],[-122.34205021198632,47.525803943896],[-122.34204515706095,47.52582575147229],[-122.34203697068705,47.5258471184408],[-122.34202573170042,47.52586783902529],[-122.34201154833558,47.525887713674294],[-122.34199455718361,47.525906550983045],[-122.3419749218768,47.52592416953672],[-122.34195283151283,47.525940399657756],[-122.34192849883365,47.52595508503983],[-122.34190215817681,47.52596808425339],[-122.34187406321844,47.52597927210761],[-122.34184448453031,47.52598854085619],[-122.34181370697402,47.52599580123496],[-122.3417820269574,47.52600098332171],[-122.34174974957989,47.52600403720953],[-122.34171718569418,47.52600493348745],[-122.34168464891225,47.52600366352372],[-122.34165245258508,47.52600023954896],[-122.34162090678475,47.52599469453838],[-122.34161720700521,47.5259937738539],[-122.33222210000001,47.5455245],[-122.33203789999999,47.545669],[-122.32962180000001,47.546295799999996],[-122.32167020000001,47.54798050000001]]],[[[-122.3832604,47.6319559],[-122.3836741,47.6336174],[-122.37800550000001,47.63898349999999],[-122.37795240000001,47.639015199999996],[-122.37640109999998,47.6394619],[-122.3700754,47.64097809999999],[-122.3664122,47.640762],[-122.365963,47.640717099999996],[-122.3635246,47.63966869999999],[-122.35952790000002,47.63724090000001],[-122.3581945,47.6363763],[-122.34887071706405,47.629888058326195],[-122.34800100000001,47.630439499999994],[-122.34292400000001,47.6334766],[-122.3424471,47.63347679999999],[-122.34031529999999,47.6334489],[-122.3401217,47.633443],[-122.33594754488605,47.63186481281661],[-122.3275962,47.6462631],[-122.32506200000002,47.648205000000004],[-122.323262,47.6488226],[-122.3219857,47.649001999999996],[-122.318227,47.6469762],[-122.3161674,47.6456193],[-122.30658319999999,47.6323106],[-122.3065841,47.632239299999995],[-122.3071301,47.630554999999994],[-122.30852170000001,47.628746799999995],[-122.30854800000002,47.6287288],[-122.31119270000002,47.62693749999999],[-122.3127031,47.6260109],[-122.31720583084075,47.6238784186813],[-122.31357869999998,47.62119839999999],[-122.3128286,47.620547599999995],[-122.3087511,47.616619699999994],[-122.3084531,47.616080199999985],[-122.30738129999999,47.61403779999999],[-122.308185,47.6127955],[-122.31381045926399,47.60592879335457],[-122.30648549999998,47.60110209999999],[-122.30625200000001,47.6009275],[-122.30510975525874,47.59994312555941],[-122.3022377,47.6011197],[-122.2969196,47.6026063],[-122.2959923,47.602218799999996],[-122.2874223,47.59652350000002],[-122.28717250000001,47.5961656],[-122.2870069,47.5957435],[-122.28559290000001,47.58929619999999],[-122.2854947,47.5887708],[-122.28513350000001,47.581622200000005],[-122.2953081,47.5746135],[-122.2955011,47.5745474],[-122.2966181,47.574312899999995],[-122.3034358,47.5766447],[-122.3052858,47.57760389999999],[-122.3068345,47.57864059999999],[-122.3119391897718,47.58210253175768],[-122.31340850000001,47.5812101],[-122.31369580000002,47.5810623],[-122.31393230000002,47.58095699999999],[-122.3146068,47.5809459],[-122.31660820000002,47.5809276],[-122.3270147,47.59232110000001],[-122.328875,47.59458589999999],[-122.33040630000002,47.5974133],[-122.3304555,47.59751670000001],[-122.33047660000001,47.59781129999999],[-122.33039709999998,47.599277400000005],[-122.33022750000002,47.59961959999999],[-122.3291353,47.60077169999999],[-122.32840996549055,47.601457027482],[-122.3291122,47.60154599999999],[-122.33123230000001,47.6018509],[-122.3342549373055,47.60230949896778],[-122.3378191,47.6023285],[-122.3551129,47.61361519999999],[-122.35570130000002,47.6140881],[-122.36009400000002,47.61807040000001],[-122.36032577600427,47.618299149973176],[-122.3832604,47.6319559]]],[[[-122.4111389,47.6540281],[-122.4107597,47.654489899999994],[-122.4073775,47.65729040000001],[-122.406085,47.6582866],[-122.39945399999999,47.6624704],[-122.39168540000001,47.66371869999998],[-122.38605580000001,47.66151120000001],[-122.38572009999999,47.661375099999994],[-122.38486259999999,47.6608835],[-122.3841112,47.66039270000001],[-122.3772446,47.6558023],[-122.3735159,47.648591],[-122.3735102,47.64836660000001],[-122.3760714,47.64659710000001],[-122.3869357,47.639133199999996],[-122.39025850000002,47.6376284],[-122.39293170000002,47.63691289999999],[-122.39294229999999,47.63691289999999],[-122.3971668,47.63945540000001],[-122.4005627,47.64156939999999],[-122.4059079,47.6455804],[-122.411406,47.650520400000005],[-122.4111389,47.6540281]]],[[[-122.3596316,47.66516459999999],[-122.35965930000002,47.665221200000005],[-122.36092510000002,47.6708109],[-122.3609149,47.67228089999999],[-122.3609137,47.6724344],[-122.3593939,47.675919799999996],[-122.3551823,47.678812],[-122.3499975,47.68218569999999],[-122.34490950000001,47.6841004],[-122.3441866,47.68428519999999],[-122.3404095,47.68307320000001],[-122.3293114,47.67937010000001],[-122.32819160000001,47.67838819999999],[-122.32591079999999,47.6759918],[-122.3255692,47.675529],[-122.3253892,47.672907],[-122.3254498,47.66942],[-122.3254568,47.6692794],[-122.32569410000002,47.6686949],[-122.32813240000002,47.6649338],[-122.3355903,47.6602535],[-122.3374435,47.65909619999999],[-122.33983370000001,47.6579418],[-122.34235060000002,47.6573541],[-122.3471499,47.6572168],[-122.3505577,47.658888000000005],[-122.3544969,47.66134199999999],[-122.35650060000002,47.662618699999996],[-122.3590594,47.6643748],[-122.3596316,47.66516459999999]]],[[[-122.39818609999999,47.699222999999996],[-122.39236020000001,47.70083599999999],[-122.3801253,47.690928899999996],[-122.3800138,47.6906839],[-122.37995269999999,47.6905213],[-122.3827308,47.6867758],[-122.3902553,47.68138019999999],[-122.39558849999999,47.678674699999995],[-122.3982969,47.677934],[-122.3984839,47.67793869999999],[-122.4067591,47.678618199999995],[-122.4053916,47.6940145],[-122.4014432,47.69701439999999],[-122.39818609999999,47.699222999999996]]],[[[-122.29549399999999,47.5609538],[-122.2961791,47.56215319999999],[-122.29517390000001,47.56624200000001],[-122.29156709999998,47.57018690000001],[-122.2838097,47.575963],[-122.26941799999999,47.56742059999999],[-122.268518,47.566576100000006],[-122.2677041,47.565514199999996],[-122.261514,47.55733730000001],[-122.26187630000001,47.5559792],[-122.27539750000001,47.5500568],[-122.28078230000001,47.55158589999999],[-122.29071970000001,47.55692580000001],[-122.29509800000001,47.56048590000001],[-122.29549399999999,47.5609538]]],[[[-122.2692328,47.6920365],[-122.2479499,47.6853851],[-122.2462019,47.68351280000001],[-122.245844,47.6815193],[-122.25064579999999,47.674718399999996],[-122.2516553,47.67382489999999],[-122.25188100000001,47.67368449999999],[-122.2628116,47.672055099999994],[-122.26338110000002,47.6720505],[-122.2635535,47.672060300000005],[-122.2678227,47.6723467],[-122.27527410000002,47.679468799999995],[-122.2695357,47.691939999999995],[-122.2692328,47.6920365]]],[[[-122.3415092,47.7162172],[-122.34491850000002,47.7191851],[-122.34655640000001,47.7213494],[-122.3472514,47.72231540000001],[-122.3475505,47.723148800000004],[-122.3396505,47.7312339],[-122.3369453,47.7323151],[-122.3316147,47.73411769999999],[-122.32215650000002,47.733968999999995],[-122.31089900000002,47.7267016],[-122.3085221,47.71938169999999],[-122.3085259,47.71929839999999],[-122.31046970000001,47.71759039999999],[-122.3124603,47.7158836],[-122.317832,47.7127018],[-122.32326250000001,47.71108829999999],[-122.32852430000001,47.70989469999999],[-122.33147800000002,47.710396299999985],[-122.3340537,47.711161999999995],[-122.33803050000002,47.71341209999999],[-122.34045060000001,47.7153332],[-122.3415092,47.7162172]]]]},"properties":{"ola":"__UNION_ALL_OLAS__","distance":"1.0mi","area_sqkm":53.661}},{"type":"Feature","geometry":{"type":"Polygon","coordinates":[[[-122.36745468554854,47.61541083128702],[-122.40427454269125,47.634690883577925],[-122.412518,47.638705699999996],[-122.4148504,47.64047279999999],[-122.43574890000001,47.661992299999994],[-122.42179509999998,47.667721399999984],[-122.4129303,47.671134499999994],[-122.40955790000001,47.67142739999999],[-122.40631404224465,47.6715266138258],[-122.40819460000002,47.67381189999999],[-122.4109789,47.677639500000005],[-122.4053916,47.6940145],[-122.4004157,47.697933199999994],[-122.37939649999998,47.71033510000001],[-122.3785121,47.7107526],[-122.37061510000001,47.708585],[-122.3606804,47.70520270000001],[-122.35997415557298,47.70483909496001],[-122.3686506,47.71259980000001],[-122.3717418,47.7157791],[-122.3734912,47.71774789999998],[-122.3733151,47.722413],[-122.3726685,47.7236292],[-122.3690157,47.72974520000001],[-122.36381440000001,47.73357390000001],[-122.3615649,47.7341091],[-122.36140160000001,47.734114399999996],[-122.3599288,47.73412960000001],[-122.3567895,47.73413140000001],[-122.34752150000001,47.73413279999999],[-122.33304450000001,47.7341312],[-122.3109427,47.7339353],[-122.308676,47.733913199999996],[-122.29111690000002,47.733697100000015],[-122.2870956,47.73228870000001],[-122.2865951,47.7320985],[-122.27936359999998,47.7169091],[-122.28316890000002,47.7121359],[-122.29094650000002,47.70671320000002],[-122.3049254,47.69751300000001],[-122.31305770510228,47.69346137241947],[-122.3070613,47.69043459999999],[-122.3021188833957,47.684673770054026],[-122.29773250000001,47.6975184],[-122.2890442,47.7052167],[-122.2810312,47.71069670000001],[-122.2772236,47.7108918],[-122.27670310000002,47.710858200000004],[-122.2479499,47.6853851],[-122.2462019,47.68351280000001],[-122.245844,47.6815193],[-122.25064579999999,47.674718399999996],[-122.25252609999998,47.672717000000006],[-122.254021,47.67123029999998],[-122.25642039999998,47.669531199999994],[-122.27103989999999,47.6594409],[-122.2740897,47.65772299999999],[-122.27872290000002,47.65760529999999],[-122.27877990000002,47.65760649999999],[-122.27884540000001,47.6576079],[-122.27932990000001,47.6576261],[-122.28158840000002,47.6583283],[-122.2871998,47.66051060000001],[-122.28782299999999,47.660839300000006],[-122.28823340000001,47.6611563],[-122.29749975478987,47.670153784502816],[-122.30262952802376,47.6608507115154],[-122.3006966,47.65903579999999],[-122.30014109999999,47.6583197],[-122.28987400000001,47.6426449],[-122.28577920918575,47.631812700794434],[-122.28476520000001,47.6313509],[-122.280375,47.617614599999996],[-122.28024620000001,47.616442899999996],[-122.28080261982655,47.6143380337575],[-122.27213077791481,47.581303249098774],[-122.2479341,47.55690600000001],[-122.2466166,47.55311129999999],[-122.2646484,47.53326989999999],[-122.266546,47.531748500000006],[-122.2698606,47.53015469999999],[-122.2699919,47.5301548],[-122.27544160000001,47.53092149999999],[-122.2806007,47.5321648],[-122.2881592,47.535228299999986],[-122.29721740000001,47.53942229999999],[-122.29784025141562,47.5398420111965],[-122.29808650000001,47.5329503],[-122.298281,47.532876699999996],[-122.34139757100137,47.52583274356596],[-122.34139374488963,47.52582201229717],[-122.34138923635014,47.52580014982689],[-122.34138791324891,47.525778093307196],[-122.34138978832414,47.52575605515452],[-122.34139484351385,47.525734247608135],[-122.34140303013001,47.525712880686214],[-122.34141426932747,47.52569216016321],[-122.34142845286368,47.52567228558822],[-122.34144544414092,47.525653448363215],[-122.3414650795221,47.52563582989972],[-122.34148716990669,47.5256195998719],[-122.34151150255191,47.525604914582445],[-122.34153784312156,47.52559191545738],[-122.34156593794286,47.52558072768413],[-122.34159551644925,47.525571459005874],[-122.34162629378619,47.52556419868407],[-122.34165797355426,47.52555901663874],[-122.34169025066352,47.52555596277523],[-122.34172281427165,47.52555506650355],[-122.3417553507773,47.52555633645522],[-122.34178754684011,47.52555976040006],[-122.34181909239821,47.52556530536407],[-122.3418496836541,47.525572917946846],[-122.34187902600031,47.525582524835976],[-122.34190683685651,47.525594033512924],[-122.34193284839067,47.52560733314403],[-122.34195681009862,47.52562229564788],[-122.34197849121632,47.52563877692874],[-122.34199768294226,47.525656618264186],[-122.34201420044835,47.525675647833665],[-122.34202788466004,47.52569568237322],[-122.34203860378823,47.525716528940286],[-122.34204625459871,47.52573798677182],[-122.34205076340646,47.5257598492178],[-122.34205208678527,47.525781905731264],[-122.34205021198632,47.525803943896],[-122.34204515706095,47.52582575147229],[-122.34203697068705,47.5258471184408],[-122.34202573170042,47.52586783902529],[-122.34201154833558,47.525887713674294],[-122.34199455718361,47.525906550983045],[-122.3419749218768,47.52592416953672],[-122.34195283151283,47.525940399657756],[-122.34192849883365,47.52595508503983],[-122.34190215817681,47.52596808425339],[-122.34187406321844,47.52597927210761],[-122.34184448453031,47.52598854085619],[-122.34181370697402,47.52599580123496],[-122.3417820269574,47.52600098332171],[-122.34174974957989,47.52600403720953],[-122.34173622744078,47.52600440938968],[-122.34426290000002,47.560924],[-122.34409130000002,47.563213600000005],[-122.3418731,47.56449359999999],[-122.3398018,47.5650715],[-122.3368943,47.5658149],[-122.3264424181535,47.56815193257189],[-122.33524810000002,47.575898999999986],[-122.3366839,47.577760299999994],[-122.3414555194959,47.5881954852081],[-122.36745468554854,47.61541083128702]],[[-122.35552239124743,47.70034447806251],[-122.35441360011009,47.700952268163036],[-122.35710160062374,47.70264499085694],[-122.35552239124743,47.70034447806251]]]},"properties":{"ola":"__UNION_ALL_OLAS__","distance":"2.5mi","area_sqkm":177.239}}]}