{"type":"FeatureCollection","crs":{"type":"name","properties":{"name":"EPSG:4326"}},"features":[{"type":"Feature","geometry":{"type":"Polygon","coordinates":[[[-122.345308005103,47.6362631340342],[-122.345264563715,47.6362633871166],[-122.344971961087,47.6362622510967],[-122.344972734044,47.6361939622326],[-122.34497429139,47.6360566790577],[-122.345310707943,47.6360571908815],[-122.345391050976,47.6360573157848],[-122.345391011,47.6360946249464],[-122.345390996405,47.636123239039],[-122.345388539074,47.636126065866],[-122.345386506421,47.6361284381469],[-122.345384492603,47.6361308173746],[-122.345382497647,47.6361332044482],[-122.345380522884,47.63613559935],[-122.345378568286,47.6361380011808],[-122.34537663388,47.6361404108399],[-122.345374718311,47.6361428274457],[-122.345372821576,47.6361452509982],[-122.345370946338,47.636147681462],[-122.345369091267,47.6361501188548],[-122.345367255056,47.6361525640935],[-122.345365438986,47.636155015362],[-122.345363644413,47.6361574735419],[-122.345361868674,47.6361599386684],[-122.345360114407,47.6361624098069],[-122.345358378975,47.6361648878922],[-122.345356665039,47.6361673728889],[-122.345354971243,47.6361698639152],[-122.345353297587,47.6361723609714],[-122.345351645428,47.6361748649388],[-122.345350013409,47.6361773749361],[-122.345348401503,47.6361798900638],[-122.345346809764,47.6361824121206],[-122.345345239468,47.6361849392901],[-122.34534369067,47.6361874733711],[-122.345342161985,47.6361900125825],[-122.34534065344,47.6361925578237],[-122.345339166339,47.6361951081777],[-122.345337700709,47.6361976645438],[-122.345336255192,47.6362002260404],[-122.34533483245,47.6362027926322],[-122.345333428518,47.6362053652714],[-122.34533204736,47.6362079430057],[-122.34533068629,47.6362105249714],[-122.345329346691,47.6362131129491],[-122.345328029866,47.6362157060219],[-122.345326733129,47.636218303326],[-122.345325457837,47.636220905743],[-122.345324202658,47.6362235132904],[-122.345322970227,47.6362261250338],[-122.345321759215,47.6362287409907],[-122.345320569647,47.6362313620605],[-122.345319401498,47.6362339873438],[-122.345318254766,47.6362366168408],[-122.345317129453,47.6362392505512],[-122.345316026888,47.6362418884577],[-122.345314944437,47.6362445314946],[-122.345313884683,47.6362471769289],[-122.345312846372,47.636249827476],[-122.345311829454,47.6362524813375],[-122.345310835285,47.6362551393949],[-122.345309862507,47.6362578007666],[-122.345308911122,47.6362604654526],[-122.345308005103,47.6362631340342]]]},"properties":{"PIN":"1689400959","ACQ_DATE":871257600000,"SUBPARCEL":20532}},{"type":"Feature","geometry":{"type":"Polygon","coordinates":[[[-122.345288892882,47.6364690009453],[-122.345288999329,47.6363748697305],[-122.345289011448,47.636372127558],[-122.345289046211,47.6363693859844],[-122.345289104949,47.636366644992],[-122.34528918367,47.6363639046338],[-122.34528928634,47.6363611639575],[-122.345289411627,47.6363584229809],[-122.345289559585,47.6363556835024],[-122.345289728857,47.6363529446404],[-122.345289920773,47.6363502063773],[-122.345290136664,47.6363474686955],[-122.345290373869,47.6363447316301],[-122.345290633744,47.6363419960629],[-122.345290914932,47.6363392611123],[-122.345291220121,47.6363365276421],[-122.345291546625,47.6363337947884],[-122.345291897128,47.6363310634152],[-122.345292268972,47.6363283335578],[-122.345292663486,47.6363256051986],[-122.34529307934,47.6363228783551],[-122.345293519195,47.6363201529922],[-122.345293980389,47.636317429145],[-122.34529446428,47.6363147076952],[-122.345294969485,47.636311986862],[-122.345295498743,47.6363092693077],[-122.34529604934,47.6363065532693],[-122.345296622608,47.6363038387289],[-122.345297217268,47.6363011275029],[-122.345297834598,47.6362984177751],[-122.345298474625,47.6362957104446],[-122.345299137348,47.6362930055116],[-122.345299821464,47.6362903038928],[-122.345300526918,47.6362876037898],[-122.345301256427,47.6362849069659],[-122.34530200597,47.6362822125746],[-122.345302779567,47.6362795214624],[-122.345303573225,47.6362768336821],[-122.34530439091,47.6362741482816],[-122.345305228656,47.6362714662131],[-122.34530609043,47.6362687865242],[-122.345308005103,47.6362631340342],[-122.345308911122,47.6362604654526],[-122.345309862507,47.6362578007666],[-122.345310835285,47.6362551393949],[-122.345311829454,47.6362524813375],[-122.345312846372,47.636249827476],[-122.345313884683,47.6362471769289],[-122.345314944437,47.6362445314946],[-122.345316026888,47.6362418884577],[-122.345317129453,47.6362392505512],[-122.345318254766,47.6362366168408],[-122.345319401498,47.6362339873438],[-122.345320569647,47.6362313620605],[-122.345321759215,47.6362287409907],[-122.345322970227,47.6362261250338],[-122.345324202658,47.6362235132904],[-122.345325457837,47.636220905743],[-122.345326733129,47.636218303326],[-122.345328029866,47.6362157060219],[-122.345329346691,47.6362131129491],[-122.34533068629,47.6362105249714],[-122.34533204736,47.6362079430057],[-122.345333428518,47.6362053652714],[-122.34533483245,47.6362027926322],[-122.345336255192,47.6362002260404],[-122.345337700709,47.6361976645438],[-122.345339166339,47.6361951081777],[-122.34534065344,47.6361925578237],[-122.345342161985,47.6361900125825],[-122.34534369067,47.6361874733711],[-122.345345239468,47.6361849392901],[-122.345346809764,47.6361824121206],[-122.345348401503,47.6361798900638],[-122.345350013409,47.6361773749361],[-122.345351645428,47.6361748649388],[-122.345353297587,47.6361723609714],[-122.345354971243,47.6361698639152],[-122.345356665039,47.6361673728889],[-122.345358378975,47.6361648878922],[-122.345360114407,47.6361624098069],[-122.345361868674,47.6361599386684],[-122.345363644413,47.6361574735419],[-122.345365438986,47.636155015362],[-122.345367255056,47.6361525640935],[-122.345369091267,47.6361501188548],[-122.345370946338,47.636147681462],[-122.345372821576,47.6361452509982],[-122.345374718311,47.6361428274457],[-122.34537663388,47.6361404108399],[-122.345378568286,47.6361380011808],[-122.345380522884,47.63613559935],[-122.345382497647,47.6361332044482],[-122.345384492603,47.6361308173746],[-122.345386506421,47.6361284381469],[-122.345388539074,47.636126065866],[-122.345390996405,47.636123239039],[-122.34544982971,47.636143970883],[-122.345453421778,47.6361452437993],[-122.345456994622,47.63614654216],[-122.345460546884,47.6361478650834],[-122.345464079869,47.6361492116525],[-122.345467592299,47.6361505836837],[-122.345471082791,47.6361519793961],[-122.345474552676,47.6361533987719],[-122.345478000648,47.6361548427281],[-122.345481426682,47.6361563103655],[-122.345484830779,47.6361578016841],[-122.345488211581,47.6361593158022],[-122.345491569114,47.6361608536192],[-122.345494903379,47.636162415135],[-122.345498214323,47.6361639985511],[-122.345501500668,47.6361656056837],[-122.345504762388,47.6361672356336],[-122.345507999431,47.6361688866022],[-122.345511210544,47.636170561305],[-122.345514397006,47.6361722579258],[-122.345517557461,47.636173975583],[-122.345520691959,47.6361757160751],[-122.34552380045,47.6361774776037],[-122.345526881603,47.6361792601863],[-122.345529935443,47.6361810647223],[-122.345532961945,47.6361828903124],[-122.345535959753,47.636184736075],[-122.345538930222,47.6361866028917],[-122.345541873326,47.6361884898632],[-122.345544786405,47.6361903970249],[-122.345547670789,47.6361923243591],[-122.345550525148,47.6361942718835],[-122.345553350786,47.6361962386812],[-122.345556146398,47.6361982256691],[-122.345558911933,47.6362002310486],[-122.345561646085,47.6362022557367],[-122.34556435016,47.6362042988165],[-122.345567022853,47.6362063612049],[-122.345569665442,47.6362084410858],[-122.345572275293,47.6362105393936],[-122.345574852405,47.6362126561285],[-122.345577399413,47.6362147903558],[-122.345579912325,47.6362169421286],[-122.345582392473,47.6362191114291],[-122.345584841161,47.6362212973404],[-122.345587255727,47.636223499898],[-122.345590131582,47.6362261866154],[-122.345629818053,47.6362635069281],[-122.345790717431,47.6362638379655],[-122.345788497225,47.6364697441547],[-122.345288892882,47.6364690009453]]]},"properties":{"PIN":"1689400955","ACQ_DATE":871257600000,"SUBPARCEL":20532}},{"type":"Feature","geometry":{"type":"Polygon","coordinates":[[[-122.345629818053,47.6362635069281],[-122.345590131582,47.6362261866154],[-122.345587255727,47.636223499898],[-122.345584841161,47.6362212973404],[-122.345582392473,47.6362191114291],[-122.345579912325,47.6362169421286],[-122.345577399413,47.6362147903558],[-122.345574852405,47.6362126561285],[-122.345572275293,47.6362105393936],[-122.345569665442,47.6362084410858],[-122.345567022853,47.6362063612049],[-122.34556435016,47.6362042988165],[-122.345561646085,47.6362022557367],[-122.345558911933,47.6362002310486],[-122.345556146398,47.6361982256691],[-122.345553350786,47.6361962386812],[-122.345550525148,47.6361942718835],[-122.345547670789,47.6361923243591],[-122.345544786405,47.6361903970249],[-122.345541873326,47.6361884898632],[-122.345538930222,47.6361866028917],[-122.345535959753,47.636184736075],[-122.345532961945,47.6361828903124],[-122.345529935443,47.6361810647223],[-122.345526881603,47.6361792601863],[-122.34552380045,47.6361774776037],[-122.345520691959,47.6361757160751],[-122.345517557461,47.636173975583],[-122.345514397006,47.6361722579258],[-122.345511210544,47.636170561305],[-122.345507999431,47.6361688866022],[-122.345504762388,47.6361672356336],[-122.345501500668,47.6361656056837],[-122.345498214323,47.6361639985511],[-122.345494903379,47.636162415135],[-122.345491569114,47.6361608536192],[-122.345488211581,47.6361593158022],[-122.345484830779,47.6361578016841],[-122.345481426682,47.6361563103655],[-122.345478000648,47.6361548427281],[-122.345474552676,47.6361533987719],[-122.345471082791,47.6361519793961],[-122.345467592299,47.6361505836837],[-122.345464079869,47.6361492116525],[-122.345460546884,47.6361478650834],[-122.345456994622,47.63614654216],[-122.345453421778,47.6361452437993],[-122.34544982971,47.636143970883],[-122.345390996405,47.636123239039],[-122.345391011,47.6360946249464],[-122.345391050976,47.6360573157848],[-122.345792937592,47.6360579308757],[-122.345790717431,47.6362638379655],[-122.345629818053,47.6362635069281]]]},"properties":{"PIN":"1689400957","ACQ_DATE":871257600000,"SUBPARCEL":20532}},{"type":"Feature","geometry":{"type":"Polygon","coordinates":[[[-122.344969621883,47.6364685249483],[-122.344971177915,47.6363312417922],[-122.344971961087,47.6362622510967],[-122.345264563715,47.6362633871166],[-122.345308005103,47.6362631340342],[-122.34530609043,47.6362687865242],[-122.345305228656,47.6362714662131],[-122.34530439091,47.6362741482816],[-122.345303573225,47.6362768336821],[-122.345302779567,47.6362795214624],[-122.34530200597,47.6362822125746],[-122.345301256427,47.6362849069659],[-122.345300526918,47.6362876037898],[-122.345299821464,47.6362903038928],[-122.345299137348,47.6362930055116],[-122.345298474625,47.6362957104446],[-122.345297834598,47.6362984177751],[-122.345297217268,47.6363011275029],[-122.345296622608,47.6363038387289],[-122.34529604934,47.6363065532693],[-122.345295498743,47.6363092693077],[-122.345294969485,47.636311986862],[-122.34529446428,47.6363147076952],[-122.345293980389,47.636317429145],[-122.345293519195,47.6363201529922],[-122.34529307934,47.6363228783551],[-122.345292663486,47.6363256051986],[-122.345292268972,47.6363283335578],[-122.345291897128,47.6363310634152],[-122.345291546625,47.6363337947884],[-122.345291220121,47.6363365276421],[-122.345290914932,47.6363392611123],[-122.345290633744,47.6363419960629],[-122.345290373869,47.6363447316301],[-122.345290136664,47.6363474686955],[-122.345289920773,47.6363502063773],[-122.345289728857,47.6363529446404],[-122.345289559585,47.6363556835024],[-122.345289411627,47.6363584229809],[-122.34528928634,47.6363611639575],[-122.34528918367,47.6363639046338],[-122.345289104949,47.636366644992],[-122.345289046211,47.6363693859844],[-122.345289011448,47.636372127558],[-122.345288999329,47.6363748697305],[-122.345288892882,47.6364690009453],[-122.344969621883,47.6364685249483]]]},"properties":{"PIN":"1689400961","ACQ_DATE":871257600000,"SUBPARCEL":20532}},{"type":"Feature","geometry":{"type":"Polygon","coordinates":[[[-122.344971961087,47.6362622510967],[-122.344850276972,47.636262619015],[-122.344851054697,47.6361941681606],[-122.344972734044,47.6361939622326],[-122.344971961087,47.6362622510967]]]},"properties":{"PIN":"1689400959","ACQ_DATE":871257600000,"SUBPARCEL":20532}},{"type":"Feature","geometry":{"type":"Polygon","coordinates":[[[-122.344972734044,47.6361939622326],[-122.344851054697,47.6361941681606],[-122.344852610445,47.6360570937224],[-122.344853946155,47.6359390561532],[-122.344975603555,47.6359382072844],[-122.34497429139,47.6360566790577],[-122.344972734044,47.6361939622326]]]},"properties":{"PIN":"9301301530","ACQ_DATE":707702400000,"SUBPARCEL":9564}},{"type":"Feature","geometry":{"type":"Polygon","coordinates":[[[-122.344969621883,47.6364685249483],[-122.344847945681,47.6364683116045],[-122.344849500193,47.6363312398828],[-122.344850276972,47.636262619015],[-122.344971961087,47.6362622510967],[-122.344971177915,47.6363312417922],[-122.344969621883,47.6364685249483]]]},"properties":{"PIN":"1689400961","ACQ_DATE":871257600000,"SUBPARCEL":20532}},{"type":"Feature","geometry":{"type":"Polygon","coordinates":[[[-122.345310707943,47.6360571908815],[-122.34497429139,47.6360566790577],[-122.344975603555,47.6359382072844],[-122.344977404335,47.6357820992349],[-122.345313882716,47.6357826470888],[-122.345312294706,47.6359198974031],[-122.345310707943,47.6360571908815]]]},"properties":{"PIN":"9301301530","ACQ_DATE":707702400000,"SUBPARCEL":9564}}]}